,Unnamed: 0,Unnamed: 0.1,address,area,city,detail,detail_info,location,name,province,street_id,telephone,uid,lat,lng,tag,lng_w,lat_w
0,0,0,河南省洛阳市洛龙区S319(洛宜公路),洛龙区,洛阳市,1,"{'tag': '运动健身;体育场馆', 'type': 'life', 'detail_url': 'http://api.map.baidu.com/place/detail?uid=f46bd14fa5701566e215f955&output=html&source=placeapi_v2', 'image_num': '2', 'children': []}","{'lat': 34.664203, 'lng': 112.473752}",Garden Court花园球馆(花卉市场店),河南省,,,f46bd14fa5701566e215f955,34.664203,112.473752,运动健身;体育场馆,,
1,1,1,河南省洛阳市洛龙区太康路自行车赛场西侧,洛龙区,洛阳市,1,"{'tag': '运动健身;体育场馆', 'type': 'life', 'detail_url': 'http://api.map.baidu.com/place/detail?uid=430b7990b8a93698c2f1cf2e&output=html&source=placeapi_v2', 'image_num': '1', 'children': []}","{'lat': 34.630555, 'lng': 112.436195}",体育中心-室外篮球场,河南省,430b7990b8a93698c2f1cf2e,,430b7990b8a93698c2f1cf2e,34.630555,112.436195,运动健身;体育场馆,,
2,2,2,洛阳市洛龙区开元大道286号洛阳会展中心5楼,洛龙区,洛阳市,1,"{'tag': '运动健身;体育场馆', 'navi_location': {'lng': 112.43678809304, 'lat': 34.62391942249}, 'type': 'life', 'detail_url': 'http://api.map.baidu.com/place/detail?uid=215bd5e5e3b4534dddee8b57&output=html&source=placeapi_v2', 'overall_rating': '0.0', 'image_num': '2', 'comment_num': '1', 'children': []}","{'lat': 34.623741, 'lng': 112.437417}",超越羽毛球馆,河南省,,(0379)65997636,215bd5e5e3b4534dddee8b57,34.623741,112.437417,运动健身;体育场馆,,
3,3,3,河南省洛阳市西工区汉宫路5号乾元木材公司院内,西工区,洛阳市,1,"{'tag': '运动健身;体育场馆', 'type': 'life', 'detail_url': 'http://api.map.baidu.com/place/detail?uid=d68f98c111a065154054d73d&output=html&source=placeapi_v2', 'overall_rating': '4.0', 'image_num': '4', 'comment_num': '3', 'children': []}","{'lat': 34.695521, 'lng': 112.426276}",7号球馆,河南省,,"(0379)61129817,15138798770",d68f98c111a065154054d73d,34.695521,112.426276,运动健身;体育场馆,,
4,4,4,河南省洛阳市西工区纱厂北路4号纱厂北路丹尼斯向北100米(食品城),西工区,洛阳市,1,"{'tag': '运动健身;体育场馆', 'type': 'life', 'detail_url': 'http://api.map.baidu.com/place/detail?uid=e7841c706f04b930c51e5128&output=html&source=placeapi_v2', 'overall_rating': '5.0', 'image_num': '10', 'comment_num': '3', 'children': []}","{'lat': 34.691321, 'lng': 112.435232}",袋鼠篮球公园,河南省,,18103796907,e7841c706f04b930c51e5128,34.691321,112.435232,运动健身;体育场馆,,
5,5,5,河南省洛阳市洛龙区洛河南岸洛阳新区,洛龙区,洛阳市,1,"{'tag': '运动健身;体育场馆', 'type': 'life', 'detail_url': 'http://api.map.baidu.com/place/detail?uid=806d4d9b577137be96ca0752&output=html&source=placeapi_v2', 'overall_rating': '5.0', 'image_num': '1', 'comment_num': '2', 'children': []}","{'lat': 34.623437, 'lng': 112.440247}",新区体育中心篮球馆,河南省,806d4d9b577137be96ca0752,,806d4d9b577137be96ca0752,34.623437,112.440247,运动健身;体育场馆,,
6,6,6,华夏路与春城路交叉口东南150米,涧西区,洛阳市,1,"{'tag': '运动健身;体育场馆', 'type': 'life', 'detail_url': 'http://api.map.baidu.com/place/detail?uid=f14e340c59b018194207c19a&output=html&source=placeapi_v2', 'image_num': '1', 'children': []}","{'lat': 34.625851, 'lng': 112.399772}",春盈羽球馆,河南省,,(0379)60658167,f14e340c59b018194207c19a,34.625851,112.399772,运动健身;体育场馆,,
7,7,7,健康路与航空路交叉口南50米,西工区,洛阳市,1,"{'tag': '运动健身;体育场馆', 'type': 'life', 'detail_url': 'http://api.map.baidu.com/place/detail?uid=7b54f15737294c0481288a5a&output=html&source=placeapi_v2', 'image_num': '1', 'children': []}","{'lat': 34.671668, 'lng': 112.447659}",篮球馆,河南省,,,7b54f15737294c0481288a5a,34.671668,112.447659,运动健身;体育场馆,,
8,8,8,丽新路青少年宫,涧西区,洛阳市,1,"{'tag': '运动健身;体育场馆', 'type': 'life', 'detail_url': 'http://api.map.baidu.com/place/detail?uid=cead7693174b5420d42ce2b1&output=html&source=placeapi_v2', 'image_num': '1', 'children': []}","{'lat': 34.661976, 'lng': 112.416052}",洛阳市青少年宫-羽毛球馆,河南省,cead7693174b5420d42ce2b1,,cead7693174b5420d42ce2b1,34.661976,112.416052,运动健身;体育场馆,,
9,9,9,河南省洛阳市涧西区陇北二路19号,涧西区,洛阳市,1,"{'tag': '运动健身;体育场馆', 'type': 'life', 'detail_url': 'http://api.map.baidu.com/place/detail?uid=2ed0096b93a3a59008f5eb1e&output=html&source=placeapi_v2', 'image_num': '3', 'children': []}","{'lat': 34.672487, 'lng': 112.387299}",乒乓球俱乐部,河南省,2ed0096b93a3a59008f5eb1e,,2ed0096b93a3a59008f5eb1e,34.672487,112.387299,运动健身;体育场馆,,
10,10,10,河南省洛阳市涧西区汉口路14号,涧西区,洛阳市,1,"{'tag': '运动健身;体育场馆', 'type': 'life', 'detail_url': 'http://api.map.baidu.com/place/detail?uid=afa8418de5e61a3e7bf79606&output=html&source=placeapi_v2', 'image_num': '2', 'children': []}","{'lat': 34.677066, 'lng': 112.371498}",河柴羽毛球毽球馆,河南省,afa8418de5e61a3e7bf79606,"13693792357,15703795402",afa8418de5e61a3e7bf79606,34.677066,112.371498,运动健身;体育场馆,,
11,11,11,自强路附近,洛龙区,洛阳市,1,"{'tag': '运动健身;体育场馆', 'type': 'life', 'detail_url': 'http://api.map.baidu.com/place/detail?uid=d5d6197ccd12bef7fa0cada0&output=html&source=placeapi_v2', 'overall_rating': '0.0', 'image_num': '1', 'children': []}","{'lat': 34.607052, 'lng': 112.421895}",河南科技大学开元校区-篮球场,河南省,d5d6197ccd12bef7fa0cada0,,d5d6197ccd12bef7fa0cada0,34.607052,112.421895,运动健身;体育场馆,,
12,12,12,河南省洛阳市西工区陵园路七号院,西工区,洛阳市,1,"{'tag': '运动健身;体育场馆', 'type': 'life', 'detail_url': 'http://api.map.baidu.com/place/detail?uid=7e8f85c13309ae7f21f017e7&output=html&source=placeapi_v2', 'overall_rating': '0.0', 'image_num': '1', 'children': []}","{'lat': 34.698192, 'lng': 112.43865}",海川羽毛球馆,河南省,,(0379)60280091,7e8f85c13309ae7f21f017e7,34.698192,112.43865,运动健身;体育场馆,,
13,13,13,安乐镇茹刘线,洛龙区,洛阳市,1,"{'tag': '运动健身;体育场馆', 'type': 'life', 'detail_url': 'http://api.map.baidu.com/place/detail?uid=04465935c028525eae080f56&output=html&source=placeapi_v2', 'overall_rating': '4.0', 'image_num': '7', 'comment_num': '4', 'children': []}","{'lat': 34.652203, 'lng': 112.505729}",洛阳篮球公园,河南省,04465935c028525eae080f56,13783171016,04465935c028525eae080f56,34.652203,112.505729,运动健身;体育场馆,,
14,14,14,黄河路114号,涧西区,洛阳市,1,"{'tag': '运动健身;体育场馆', 'type': 'life', 'detail_url': 'http://api.map.baidu.com/place/detail?uid=ab39b983107645acca213d53&output=html&source=placeapi_v2', 'image_num': '1', 'children': []}","{'lat': 34.661696, 'lng': 112.422381}",洛阳新动力羽毛球俱乐部,河南省,,,ab39b983107645acca213d53,34.661696,112.422381,运动健身;体育场馆,,
15,15,15,河南省洛阳市洛龙区李贺路与自强路交叉口西南150米,洛龙区,洛阳市,1,"{'tag': '运动健身;体育场馆', 'type': 'life', 'detail_url': 'http://api.map.baidu.com/place/detail?uid=b3bc20fa5578e64d8605bfbb&output=html&source=placeapi_v2', 'image_num': '1', 'children': []}","{'lat': 34.606731, 'lng': 112.420699}",河科大健身房羽毛球馆,河南省,b3bc20fa5578e64d8605bfbb,,b3bc20fa5578e64d8605bfbb,34.606731,112.420699,运动健身;体育场馆,,
16,16,16,河南省洛阳市洛龙区春咏路与滋兰路交叉口西北150米,洛龙区,洛阳市,1,"{'tag': '运动健身;体育场馆', 'type': 'life', 'detail_url': 'http://api.map.baidu.com/place/detail?uid=a8cd5263c0b39139f6c59cfb&output=html&source=placeapi_v2', 'image_num': '1', 'children': []}","{'lat': 34.622096, 'lng': 112.427507}",洛阳理工学院开元校区篮球场,河南省,a8cd5263c0b39139f6c59cfb,,a8cd5263c0b39139f6c59cfb,34.622096,112.427507,运动健身;体育场馆,,
17,17,17,航空路和青年路的交叉口附近,西工区,洛阳市,1,"{'tag': '运动健身;体育场馆', 'type': 'life', 'detail_url': 'http://api.map.baidu.com/place/detail?uid=00d3f0dfa5d5fa2f210220c7&output=html&source=placeapi_v2', 'image_num': '1', 'children': []}","{'lat': 34.671641, 'lng': 112.447825}",博德篮球训练营,河南省,,13343884989,00d3f0dfa5d5fa2f210220c7,34.671641,112.447825,运动健身;体育场馆,,
18,18,18,中州中路319金水湾大酒店,西工区,洛阳市,1,"{'tag': '运动健身;体育场馆', 'navi_location': {'lng': 112.44738895324, 'lat': 34.677893319671}, 'type': 'life', 'detail_url': 'http://api.map.baidu.com/place/detail?uid=9fe3b0e265c6e07943ab9a8b&output=html&source=placeapi_v2', 'overall_rating': '0.0', 'image_num': '1', 'comment_num': '1', 'children': []}","{'lat': 34.677683, 'lng': 112.447468}",金水湾大酒店-乒乓球,河南省,9fe3b0e265c6e07943ab9a8b,,9fe3b0e265c6e07943ab9a8b,34.677683,112.447468,运动健身;体育场馆,,
19,19,19,中州西路与涧河街交叉口东北150米,西工区,洛阳市,1,"{'tag': '运动健身;体育场馆', 'type': 'life', 'detail_url': 'http://api.map.baidu.com/place/detail?uid=37c7e6323b7fe03fd8131827&output=html&source=placeapi_v2', 'image_num': '1', 'children': []}","{'lat': 34.670268, 'lng': 112.426085}",篮球场,河南省,,,37c7e6323b7fe03fd8131827,34.670268,112.426085,运动健身;体育场馆,,
20,20,20,河南省洛阳市洛龙区洛阳理工学院大学生骨干培训学校,洛龙区,洛阳市,1,"{'tag': '运动健身;体育场馆', 'type': 'life', 'detail_url': 'http://api.map.baidu.com/place/detail?uid=c0839b98fbd96686471a322c&output=html&source=placeapi_v2', 'image_num': '2', 'children': []}","{'lat': 34.622262, 'lng': 112.426537}",洛阳理工学院羽毛球训练房,河南省,c0839b98fbd96686471a322c,,c0839b98fbd96686471a322c,34.622262,112.426537,运动健身;体育场馆,,
21,21,21,学子街8号,洛龙区,洛阳市,1,"{'tag': '运动健身;体育场馆', 'type': 'life', 'detail_url': 'http://api.map.baidu.com/place/detail?uid=91c469cac4194fccd72ce2f1&output=html&source=placeapi_v2', 'image_num': '1', 'children': []}","{'lat': 34.620457, 'lng': 112.424629}",洛阳理工学院篮球场,河南省,91c469cac4194fccd72ce2f1,,91c469cac4194fccd72ce2f1,34.620457,112.424629,运动健身;体育场馆,,
22,22,22,河南省洛阳市西工区春都路126,西工区,洛阳市,1,"{'tag': '运动健身;体育场馆', 'type': 'life', 'detail_url': 'http://api.map.baidu.com/place/detail?uid=157539f6ab4352ecd13ce39b&output=html&source=placeapi_v2', 'overall_rating': '3.0', 'image_num': '1', 'children': []}","{'lat': 34.694893, 'lng': 112.452021}",乾记羽毛球馆,河南省,,13937907464,157539f6ab4352ecd13ce39b,34.694893,112.452021,运动健身;体育场馆,,
23,23,23,机场西路九号洛阳新艺学院附近,孟津县,洛阳市,1,"{'tag': '运动健身;体育场馆', 'type': 'life', 'detail_url': 'http://api.map.baidu.com/place/detail?uid=5b29714a99134ad405026f98&output=html&source=placeapi_v2', 'image_num': '1', 'children': []}","{'lat': 34.736794, 'lng': 112.385593}",洛阳空港产业集聚区乒乓球俱乐部,河南省,5b29714a99134ad405026f98,,5b29714a99134ad405026f98,34.736794,112.385593,运动健身;体育场馆,,
24,24,24,中州东路青年宫4楼,老城区,洛阳市,1,"{'tag': '运动健身;体育场馆', 'navi_location': {'lng': 112.48703522676, 'lat': 34.691895884976}, 'type': 'life', 'detail_url': 'http://api.map.baidu.com/place/detail?uid=15465f0b95ca22ac774ff146&output=html&source=placeapi_v2', 'overall_rating': '5.0', 'image_num': '5', 'comment_num': '2', 'children': []}","{'lat': 34.691855, 'lng': 112.48738}",乐旋乒乓球俱乐部,河南省,15465f0b95ca22ac774ff146,18939004129,15465f0b95ca22ac774ff146,34.691855,112.48738,运动健身;体育场馆,,
25,25,25,中州东路310号云天宾馆,老城区,洛阳市,1,"{'tag': '运动健身;体育场馆', 'navi_location': {'lng': 112.48338105559, 'lat': 34.689478784986}, 'type': 'life', 'detail_url': 'http://api.map.baidu.com/place/detail?uid=f5f1d8f5c7e3a70f91114c72&output=html&source=placeapi_v2', 'overall_rating': '0.0', 'image_num': '2', 'comment_num': '1', 'children': []}","{'lat': 34.689634, 'lng': 112.48335}",云天宾馆-乒乓球厅,河南省,f5f1d8f5c7e3a70f91114c72,(0379)65277588,f5f1d8f5c7e3a70f91114c72,34.689634,112.48335,运动健身;体育场馆,,
26,26,26,洛阳市孟津县洛麻线,孟津县,洛阳市,1,"{'tag': '运动健身;体育场馆', 'navi_location': {'lng': 112.3984291003, 'lat': 34.737165060898}, 'type': 'life', 'detail_url': 'http://api.map.baidu.com/place/detail?uid=f8ea7498037ad7a0c8e33ca8&output=html&source=placeapi_v2', 'image_num': '1', 'children': []}","{'lat': 34.737536, 'lng': 112.397896}",洛阳职业技术学院-篮球场,河南省,f8ea7498037ad7a0c8e33ca8,,f8ea7498037ad7a0c8e33ca8,34.737536,112.397896,运动健身;体育场馆,,
27,27,27,开元大道239号钼都利豪国际饭店19层,洛龙区,洛阳市,1,"{'tag': '运动健身;体育场馆', 'navi_location': {'lng': 112.45219416099, 'lat': 34.622932804797}, 'type': 'life', 'detail_url': 'http://api.map.baidu.com/place/detail?uid=1257f8ad389e3bedd0ff2331&output=html&source=placeapi_v2', 'overall_rating': '0.0', 'image_num': '1', 'children': []}","{'lat': 34.622723, 'lng': 112.452235}",钼都利豪国际饭店-乒乓球室,河南省,1257f8ad389e3bedd0ff2331,(0379)65979999,1257f8ad389e3bedd0ff2331,34.622723,112.452235,运动健身;体育场馆,,
28,28,28,安乐街道洛阳桥南向南200米龙安宾馆,洛龙区,洛阳市,1,"{'tag': '教育培训', 'type': 'education', 'detail_url': 'http://api.map.baidu.com/place/detail?uid=870658347387db67f4b916c8&output=html&source=placeapi_v2', 'children': []}","{'lat': 34.662949, 'lng': 112.473231}",洛阳陈涛乒乓球俱乐部,河南省,,,870658347387db67f4b916c8,34.662949,112.473231,教育培训,,
29,29,29,纱厂东路4号第1幢附近,西工区,洛阳市,1,"{'tag': '出入口;门', 'type': 'life', 'detail_url': 'http://api.map.baidu.com/place/detail?uid=681cbe5be56b0cd0081cc714&output=html&source=placeapi_v2', 'image_num': '1', 'children': []}","{'lat': 34.685556, 'lng': 112.443089}",0379羽毛球俱乐部-东北门,河南省,681cbe5be56b0cd0081cc714,,681cbe5be56b0cd0081cc714,34.685556,112.443089,出入口;门,,
30,30,30,黄河路114号,涧西区,洛阳市,1,"{'tag': '出入口;门', 'type': 'life', 'detail_url': 'http://api.map.baidu.com/place/detail?uid=ed61b8f552d853ac9d95dee4&output=html&source=placeapi_v2', 'image_num': '1', 'children': []}","{'lat': 34.661633, 'lng': 112.42249}",洛阳新动力羽毛球俱乐部-东北门,河南省,ed61b8f552d853ac9d95dee4,,ed61b8f552d853ac9d95dee4,34.661633,112.42249,出入口;门,,
31,31,31,关林街道牡丹大道广利街交叉口向东一百五十米路南,洛龙区,洛阳市,1,"{'tag': '运动健身;体育场馆', 'type': 'life', 'detail_url': 'http://api.map.baidu.com/place/detail?uid=5ab3f8d01a667d02d92f28c3&output=html&source=placeapi_v2', 'image_num': '1', 'children': []}","{'lat': 34.61713, 'lng': 112.473437}",红双喜乒乓球俱乐部,河南省,,,5ab3f8d01a667d02d92f28c3,34.61713,112.473437,运动健身;体育场馆,,
32,32,32,河南省洛阳市洛龙区S319(洛宜公路),洛龙区,洛阳市,1,"{'tag': '运动健身;体育场馆', 'type': 'life', 'detail_url': 'http://api.map.baidu.com/place/detail?uid=f46bd14fa5701566e215f955&output=html&source=placeapi_v2', 'image_num': '2', 'children': []}","{'lat': 34.664203, 'lng': 112.473752}",Garden Court花园球馆(花卉市场店),河南省,,,f46bd14fa5701566e215f955,34.664203,112.473752,运动健身;体育场馆,,
33,33,33,河南省洛阳市洛龙区太康路自行车赛场西侧,洛龙区,洛阳市,1,"{'tag': '运动健身;体育场馆', 'type': 'life', 'detail_url': 'http://api.map.baidu.com/place/detail?uid=430b7990b8a93698c2f1cf2e&output=html&source=placeapi_v2', 'image_num': '1', 'children': []}","{'lat': 34.630555, 'lng': 112.436195}",体育中心-室外篮球场,河南省,430b7990b8a93698c2f1cf2e,,430b7990b8a93698c2f1cf2e,34.630555,112.436195,运动健身;体育场馆,,
34,34,34,洛阳市洛龙区开元大道286号洛阳会展中心5楼,洛龙区,洛阳市,1,"{'tag': '运动健身;体育场馆', 'navi_location': {'lng': 112.43678809304, 'lat': 34.62391942249}, 'type': 'life', 'detail_url': 'http://api.map.baidu.com/place/detail?uid=215bd5e5e3b4534dddee8b57&output=html&source=placeapi_v2', 'overall_rating': '0.0', 'image_num': '2', 'comment_num': '1', 'children': []}","{'lat': 34.623741, 'lng': 112.437417}",超越羽毛球馆,河南省,,(0379)65997636,215bd5e5e3b4534dddee8b57,34.623741,112.437417,运动健身;体育场馆,,
35,35,35,河南省洛阳市西工区汉宫路5号乾元木材公司院内,西工区,洛阳市,1,"{'tag': '运动健身;体育场馆', 'type': 'life', 'detail_url': 'http://api.map.baidu.com/place/detail?uid=d68f98c111a065154054d73d&output=html&source=placeapi_v2', 'overall_rating': '4.0', 'image_num': '4', 'comment_num': '3', 'children': []}","{'lat': 34.695521, 'lng': 112.426276}",7号球馆,河南省,,"(0379)61129817,15138798770",d68f98c111a065154054d73d,34.695521,112.426276,运动健身;体育场馆,,
36,36,36,河南省洛阳市西工区纱厂北路4号纱厂北路丹尼斯向北100米(食品城),西工区,洛阳市,1,"{'tag': '运动健身;体育场馆', 'type': 'life', 'detail_url': 'http://api.map.baidu.com/place/detail?uid=e7841c706f04b930c51e5128&output=html&source=placeapi_v2', 'overall_rating': '5.0', 'image_num': '10', 'comment_num': '3', 'children': []}","{'lat': 34.691321, 'lng': 112.435232}",袋鼠篮球公园,河南省,,18103796907,e7841c706f04b930c51e5128,34.691321,112.435232,运动健身;体育场馆,,
37,37,37,河南省洛阳市洛龙区洛河南岸洛阳新区,洛龙区,洛阳市,1,"{'tag': '运动健身;体育场馆', 'type': 'life', 'detail_url': 'http://api.map.baidu.com/place/detail?uid=806d4d9b577137be96ca0752&output=html&source=placeapi_v2', 'overall_rating': '5.0', 'image_num': '1', 'comment_num': '2', 'children': []}","{'lat': 34.623437, 'lng': 112.440247}",新区体育中心篮球馆,河南省,806d4d9b577137be96ca0752,,806d4d9b577137be96ca0752,34.623437,112.440247,运动健身;体育场馆,,
38,38,38,华夏路与春城路交叉口东南150米,涧西区,洛阳市,1,"{'tag': '运动健身;体育场馆', 'type': 'life', 'detail_url': 'http://api.map.baidu.com/place/detail?uid=f14e340c59b018194207c19a&output=html&source=placeapi_v2', 'image_num': '1', 'children': []}","{'lat': 34.625851, 'lng': 112.399772}",春盈羽球馆,河南省,,(0379)60658167,f14e340c59b018194207c19a,34.625851,112.399772,运动健身;体育场馆,,
39,39,39,健康路与航空路交叉口南50米,西工区,洛阳市,1,"{'tag': '运动健身;体育场馆', 'type': 'life', 'detail_url': 'http://api.map.baidu.com/place/detail?uid=7b54f15737294c0481288a5a&output=html&source=placeapi_v2', 'image_num': '1', 'children': []}","{'lat': 34.671668, 'lng': 112.447659}",篮球馆,河南省,,,7b54f15737294c0481288a5a,34.671668,112.447659,运动健身;体育场馆,,
40,40,40,丽新路青少年宫,涧西区,洛阳市,1,"{'tag': '运动健身;体育场馆', 'type': 'life', 'detail_url': 'http://api.map.baidu.com/place/detail?uid=cead7693174b5420d42ce2b1&output=html&source=placeapi_v2', 'image_num': '1', 'children': []}","{'lat': 34.661976, 'lng': 112.416052}",洛阳市青少年宫-羽毛球馆,河南省,cead7693174b5420d42ce2b1,,cead7693174b5420d42ce2b1,34.661976,112.416052,运动健身;体育场馆,,
41,41,41,河南省洛阳市涧西区陇北二路19号,涧西区,洛阳市,1,"{'tag': '运动健身;体育场馆', 'type': 'life', 'detail_url': 'http://api.map.baidu.com/place/detail?uid=2ed0096b93a3a59008f5eb1e&output=html&source=placeapi_v2', 'image_num': '3', 'children': []}","{'lat': 34.672487, 'lng': 112.387299}",乒乓球俱乐部,河南省,2ed0096b93a3a59008f5eb1e,,2ed0096b93a3a59008f5eb1e,34.672487,112.387299,运动健身;体育场馆,,
42,42,42,河南省洛阳市涧西区汉口路14号,涧西区,洛阳市,1,"{'tag': '运动健身;体育场馆', 'type': 'life', 'detail_url': 'http://api.map.baidu.com/place/detail?uid=afa8418de5e61a3e7bf79606&output=html&source=placeapi_v2', 'image_num': '2', 'children': []}","{'lat': 34.677066, 'lng': 112.371498}",河柴羽毛球毽球馆,河南省,afa8418de5e61a3e7bf79606,"13693792357,15703795402",afa8418de5e61a3e7bf79606,34.677066,112.371498,运动健身;体育场馆,,
43,43,43,自强路附近,洛龙区,洛阳市,1,"{'tag': '运动健身;体育场馆', 'type': 'life', 'detail_url': 'http://api.map.baidu.com/place/detail?uid=d5d6197ccd12bef7fa0cada0&output=html&source=placeapi_v2', 'overall_rating': '0.0', 'image_num': '1', 'children': []}","{'lat': 34.607052, 'lng': 112.421895}",河南科技大学开元校区-篮球场,河南省,d5d6197ccd12bef7fa0cada0,,d5d6197ccd12bef7fa0cada0,34.607052,112.421895,运动健身;体育场馆,,
44,44,44,河南省洛阳市西工区陵园路七号院,西工区,洛阳市,1,"{'tag': '运动健身;体育场馆', 'type': 'life', 'detail_url': 'http://api.map.baidu.com/place/detail?uid=7e8f85c13309ae7f21f017e7&output=html&source=placeapi_v2', 'overall_rating': '0.0', 'image_num': '1', 'children': []}","{'lat': 34.698192, 'lng': 112.43865}",海川羽毛球馆,河南省,,(0379)60280091,7e8f85c13309ae7f21f017e7,34.698192,112.43865,运动健身;体育场馆,,
45,45,45,安乐镇茹刘线,洛龙区,洛阳市,1,"{'tag': '运动健身;体育场馆', 'type': 'life', 'detail_url': 'http://api.map.baidu.com/place/detail?uid=04465935c028525eae080f56&output=html&source=placeapi_v2', 'overall_rating': '4.0', 'image_num': '7', 'comment_num': '4', 'children': []}","{'lat': 34.652203, 'lng': 112.505729}",洛阳篮球公园,河南省,04465935c028525eae080f56,13783171016,04465935c028525eae080f56,34.652203,112.505729,运动健身;体育场馆,,
46,46,46,黄河路114号,涧西区,洛阳市,1,"{'tag': '运动健身;体育场馆', 'type': 'life', 'detail_url': 'http://api.map.baidu.com/place/detail?uid=ab39b983107645acca213d53&output=html&source=placeapi_v2', 'image_num': '1', 'children': []}","{'lat': 34.661696, 'lng': 112.422381}",洛阳新动力羽毛球俱乐部,河南省,,,ab39b983107645acca213d53,34.661696,112.422381,运动健身;体育场馆,,
47,47,47,河南省洛阳市洛龙区李贺路与自强路交叉口西南150米,洛龙区,洛阳市,1,"{'tag': '运动健身;体育场馆', 'type': 'life', 'detail_url': 'http://api.map.baidu.com/place/detail?uid=b3bc20fa5578e64d8605bfbb&output=html&source=placeapi_v2', 'image_num': '1', 'children': []}","{'lat': 34.606731, 'lng': 112.420699}",河科大健身房羽毛球馆,河南省,b3bc20fa5578e64d8605bfbb,,b3bc20fa5578e64d8605bfbb,34.606731,112.420699,运动健身;体育场馆,,
48,48,48,河南省洛阳市洛龙区春咏路与滋兰路交叉口西北150米,洛龙区,洛阳市,1,"{'tag': '运动健身;体育场馆', 'type': 'life', 'detail_url': 'http://api.map.baidu.com/place/detail?uid=a8cd5263c0b39139f6c59cfb&output=html&source=placeapi_v2', 'image_num': '1', 'children': []}","{'lat': 34.622096, 'lng': 112.427507}",洛阳理工学院开元校区篮球场,河南省,a8cd5263c0b39139f6c59cfb,,a8cd5263c0b39139f6c59cfb,34.622096,112.427507,运动健身;体育场馆,,
49,49,49,航空路和青年路的交叉口附近,西工区,洛阳市,1,"{'tag': '运动健身;体育场馆', 'type': 'life', 'detail_url': 'http://api.map.baidu.com/place/detail?uid=00d3f0dfa5d5fa2f210220c7&output=html&source=placeapi_v2', 'image_num': '1', 'children': []}","{'lat': 34.671641, 'lng': 112.447825}",博德篮球训练营,河南省,,13343884989,00d3f0dfa5d5fa2f210220c7,34.671641,112.447825,运动健身;体育场馆,,
50,50,50,中州中路319金水湾大酒店,西工区,洛阳市,1,"{'tag': '运动健身;体育场馆', 'navi_location': {'lng': 112.44738895324, 'lat': 34.677893319671}, 'type': 'life', 'detail_url': 'http://api.map.baidu.com/place/detail?uid=9fe3b0e265c6e07943ab9a8b&output=html&source=placeapi_v2', 'overall_rating': '0.0', 'image_num': '1', 'comment_num': '1', 'children': []}","{'lat': 34.677683, 'lng': 112.447468}",金水湾大酒店-乒乓球,河南省,9fe3b0e265c6e07943ab9a8b,,9fe3b0e265c6e07943ab9a8b,34.677683,112.447468,运动健身;体育场馆,,
51,51,51,中州西路与涧河街交叉口东北150米,西工区,洛阳市,1,"{'tag': '运动健身;体育场馆', 'type': 'life', 'detail_url': 'http://api.map.baidu.com/place/detail?uid=37c7e6323b7fe03fd8131827&output=html&source=placeapi_v2', 'image_num': '1', 'children': []}","{'lat': 34.670268, 'lng': 112.426085}",篮球场,河南省,,,37c7e6323b7fe03fd8131827,34.670268,112.426085,运动健身;体育场馆,,
52,52,52,河南省洛阳市洛龙区洛阳理工学院大学生骨干培训学校,洛龙区,洛阳市,1,"{'tag': '运动健身;体育场馆', 'type': 'life', 'detail_url': 'http://api.map.baidu.com/place/detail?uid=c0839b98fbd96686471a322c&output=html&source=placeapi_v2', 'image_num': '2', 'children': []}","{'lat': 34.622262, 'lng': 112.426537}",洛阳理工学院羽毛球训练房,河南省,c0839b98fbd96686471a322c,,c0839b98fbd96686471a322c,34.622262,112.426537,运动健身;体育场馆,,
53,53,53,学子街8号,洛龙区,洛阳市,1,"{'tag': '运动健身;体育场馆', 'type': 'life', 'detail_url': 'http://api.map.baidu.com/place/detail?uid=91c469cac4194fccd72ce2f1&output=html&source=placeapi_v2', 'image_num': '1', 'children': []}","{'lat': 34.620457, 'lng': 112.424629}",洛阳理工学院篮球场,河南省,91c469cac4194fccd72ce2f1,,91c469cac4194fccd72ce2f1,34.620457,112.424629,运动健身;体育场馆,,
54,54,54,河南省洛阳市西工区春都路126,西工区,洛阳市,1,"{'tag': '运动健身;体育场馆', 'type': 'life', 'detail_url': 'http://api.map.baidu.com/place/detail?uid=157539f6ab4352ecd13ce39b&output=html&source=placeapi_v2', 'overall_rating': '3.0', 'image_num': '1', 'children': []}","{'lat': 34.694893, 'lng': 112.452021}",乾记羽毛球馆,河南省,,13937907464,157539f6ab4352ecd13ce39b,34.694893,112.452021,运动健身;体育场馆,,
55,55,55,机场西路九号洛阳新艺学院附近,孟津县,洛阳市,1,"{'tag': '运动健身;体育场馆', 'type': 'life', 'detail_url': 'http://api.map.baidu.com/place/detail?uid=5b29714a99134ad405026f98&output=html&source=placeapi_v2', 'image_num': '1', 'children': []}","{'lat': 34.736794, 'lng': 112.385593}",洛阳空港产业集聚区乒乓球俱乐部,河南省,5b29714a99134ad405026f98,,5b29714a99134ad405026f98,34.736794,112.385593,运动健身;体育场馆,,
56,56,56,中州东路青年宫4楼,老城区,洛阳市,1,"{'tag': '运动健身;体育场馆', 'navi_location': {'lng': 112.48703522676, 'lat': 34.691895884976}, 'type': 'life', 'detail_url': 'http://api.map.baidu.com/place/detail?uid=15465f0b95ca22ac774ff146&output=html&source=placeapi_v2', 'overall_rating': '5.0', 'image_num': '5', 'comment_num': '2', 'children': []}","{'lat': 34.691855, 'lng': 112.48738}",乐旋乒乓球俱乐部,河南省,15465f0b95ca22ac774ff146,18939004129,15465f0b95ca22ac774ff146,34.691855,112.48738,运动健身;体育场馆,,
57,57,57,中州东路310号云天宾馆,老城区,洛阳市,1,"{'tag': '运动健身;体育场馆', 'navi_location': {'lng': 112.48338105559, 'lat': 34.689478784986}, 'type': 'life', 'detail_url': 'http://api.map.baidu.com/place/detail?uid=f5f1d8f5c7e3a70f91114c72&output=html&source=placeapi_v2', 'overall_rating': '0.0', 'image_num': '2', 'comment_num': '1', 'children': []}","{'lat': 34.689634, 'lng': 112.48335}",云天宾馆-乒乓球厅,河南省,f5f1d8f5c7e3a70f91114c72,(0379)65277588,f5f1d8f5c7e3a70f91114c72,34.689634,112.48335,运动健身;体育场馆,,
58,58,58,洛阳市孟津县洛麻线,孟津县,洛阳市,1,"{'tag': '运动健身;体育场馆', 'navi_location': {'lng': 112.3984291003, 'lat': 34.737165060898}, 'type': 'life', 'detail_url': 'http://api.map.baidu.com/place/detail?uid=f8ea7498037ad7a0c8e33ca8&output=html&source=placeapi_v2', 'image_num': '1', 'children': []}","{'lat': 34.737536, 'lng': 112.397896}",洛阳职业技术学院-篮球场,河南省,f8ea7498037ad7a0c8e33ca8,,f8ea7498037ad7a0c8e33ca8,34.737536,112.397896,运动健身;体育场馆,,
59,59,59,开元大道239号钼都利豪国际饭店19层,洛龙区,洛阳市,1,"{'tag': '运动健身;体育场馆', 'navi_location': {'lng': 112.45219416099, 'lat': 34.622932804797}, 'type': 'life', 'detail_url': 'http://api.map.baidu.com/place/detail?uid=1257f8ad389e3bedd0ff2331&output=html&source=placeapi_v2', 'overall_rating': '0.0', 'image_num': '1', 'children': []}","{'lat': 34.622723, 'lng': 112.452235}",钼都利豪国际饭店-乒乓球室,河南省,1257f8ad389e3bedd0ff2331,(0379)65979999,1257f8ad389e3bedd0ff2331,34.622723,112.452235,运动健身;体育场馆,,
60,60,60,安乐街道洛阳桥南向南200米龙安宾馆,洛龙区,洛阳市,1,"{'tag': '教育培训', 'type': 'education', 'detail_url': 'http://api.map.baidu.com/place/detail?uid=870658347387db67f4b916c8&output=html&source=placeapi_v2', 'children': []}","{'lat': 34.662949, 'lng': 112.473231}",洛阳陈涛乒乓球俱乐部,河南省,,,870658347387db67f4b916c8,34.662949,112.473231,教育培训,,
61,61,61,纱厂东路4号第1幢附近,西工区,洛阳市,1,"{'tag': '出入口;门', 'type': 'life', 'detail_url': 'http://api.map.baidu.com/place/detail?uid=681cbe5be56b0cd0081cc714&output=html&source=placeapi_v2', 'image_num': '1', 'children': []}","{'lat': 34.685556, 'lng': 112.443089}",0379羽毛球俱乐部-东北门,河南省,681cbe5be56b0cd0081cc714,,681cbe5be56b0cd0081cc714,34.685556,112.443089,出入口;门,,
62,62,62,黄河路114号,涧西区,洛阳市,1,"{'tag': '出入口;门', 'type': 'life', 'detail_url': 'http://api.map.baidu.com/place/detail?uid=ed61b8f552d853ac9d95dee4&output=html&source=placeapi_v2', 'image_num': '1', 'children': []}","{'lat': 34.661633, 'lng': 112.42249}",洛阳新动力羽毛球俱乐部-东北门,河南省,ed61b8f552d853ac9d95dee4,,ed61b8f552d853ac9d95dee4,34.661633,112.42249,出入口;门,,
63,63,63,关林街道牡丹大道广利街交叉口向东一百五十米路南,洛龙区,洛阳市,1,"{'tag': '运动健身;体育场馆', 'type': 'life', 'detail_url': 'http://api.map.baidu.com/place/detail?uid=5ab3f8d01a667d02d92f28c3&output=html&source=placeapi_v2', 'image_num': '1', 'children': []}","{'lat': 34.61713, 'lng': 112.473437}",红双喜乒乓球俱乐部,河南省,,,5ab3f8d01a667d02d92f28c3,34.61713,112.473437,运动健身;体育场馆,,
64,64,64,河南省洛阳市洛龙区S319(洛宜公路),洛龙区,洛阳市,1,"{'tag': '运动健身;体育场馆', 'type': 'life', 'detail_url': 'http://api.map.baidu.com/place/detail?uid=f46bd14fa5701566e215f955&output=html&source=placeapi_v2', 'image_num': '2', 'children': []}","{'lat': 34.664203, 'lng': 112.473752}",Garden Court花园球馆(花卉市场店),河南省,,,f46bd14fa5701566e215f955,34.664203,112.473752,运动健身;体育场馆,,
65,65,65,河南省洛阳市西工区汉宫路5号乾元木材公司院内,西工区,洛阳市,1,"{'tag': '运动健身;体育场馆', 'type': 'life', 'detail_url': 'http://api.map.baidu.com/place/detail?uid=d68f98c111a065154054d73d&output=html&source=placeapi_v2', 'overall_rating': '4.0', 'image_num': '4', 'comment_num': '3', 'children': []}","{'lat': 34.695521, 'lng': 112.426276}",7号球馆,河南省,,"(0379)61129817,15138798770",d68f98c111a065154054d73d,34.695521,112.426276,运动健身;体育场馆,,
66,66,66,河南省洛阳市西工区纱厂北路4号纱厂北路丹尼斯向北100米(食品城),西工区,洛阳市,1,"{'tag': '运动健身;体育场馆', 'type': 'life', 'detail_url': 'http://api.map.baidu.com/place/detail?uid=e7841c706f04b930c51e5128&output=html&source=placeapi_v2', 'overall_rating': '5.0', 'image_num': '10', 'comment_num': '3', 'children': []}","{'lat': 34.691321, 'lng': 112.435232}",袋鼠篮球公园,河南省,,18103796907,e7841c706f04b930c51e5128,34.691321,112.435232,运动健身;体育场馆,,
67,67,67,健康路与航空路交叉口南50米,西工区,洛阳市,1,"{'tag': '运动健身;体育场馆', 'type': 'life', 'detail_url': 'http://api.map.baidu.com/place/detail?uid=7b54f15737294c0481288a5a&output=html&source=placeapi_v2', 'image_num': '1', 'children': []}","{'lat': 34.671668, 'lng': 112.447659}",篮球馆,河南省,,,7b54f15737294c0481288a5a,34.671668,112.447659,运动健身;体育场馆,,
68,68,68,丽新路青少年宫,涧西区,洛阳市,1,"{'tag': '运动健身;体育场馆', 'type': 'life', 'detail_url': 'http://api.map.baidu.com/place/detail?uid=cead7693174b5420d42ce2b1&output=html&source=placeapi_v2', 'image_num': '1', 'children': []}","{'lat': 34.661976, 'lng': 112.416052}",洛阳市青少年宫-羽毛球馆,河南省,cead7693174b5420d42ce2b1,,cead7693174b5420d42ce2b1,34.661976,112.416052,运动健身;体育场馆,,
69,69,69,河南省洛阳市涧西区陇北二路19号,涧西区,洛阳市,1,"{'tag': '运动健身;体育场馆', 'type': 'life', 'detail_url': 'http://api.map.baidu.com/place/detail?uid=2ed0096b93a3a59008f5eb1e&output=html&source=placeapi_v2', 'image_num': '3', 'children': []}","{'lat': 34.672487, 'lng': 112.387299}",乒乓球俱乐部,河南省,2ed0096b93a3a59008f5eb1e,,2ed0096b93a3a59008f5eb1e,34.672487,112.387299,运动健身;体育场馆,,
70,70,70,河南省洛阳市涧西区汉口路14号,涧西区,洛阳市,1,"{'tag': '运动健身;体育场馆', 'type': 'life', 'detail_url': 'http://api.map.baidu.com/place/detail?uid=afa8418de5e61a3e7bf79606&output=html&source=placeapi_v2', 'image_num': '2', 'children': []}","{'lat': 34.677066, 'lng': 112.371498}",河柴羽毛球毽球馆,河南省,afa8418de5e61a3e7bf79606,"13693792357,15703795402",afa8418de5e61a3e7bf79606,34.677066,112.371498,运动健身;体育场馆,,
71,71,71,河南省洛阳市西工区陵园路七号院,西工区,洛阳市,1,"{'tag': '运动健身;体育场馆', 'type': 'life', 'detail_url': 'http://api.map.baidu.com/place/detail?uid=7e8f85c13309ae7f21f017e7&output=html&source=placeapi_v2', 'overall_rating': '0.0', 'image_num': '1', 'children': []}","{'lat': 34.698192, 'lng': 112.43865}",海川羽毛球馆,河南省,,(0379)60280091,7e8f85c13309ae7f21f017e7,34.698192,112.43865,运动健身;体育场馆,,
72,72,72,安乐镇茹刘线,洛龙区,洛阳市,1,"{'tag': '运动健身;体育场馆', 'type': 'life', 'detail_url': 'http://api.map.baidu.com/place/detail?uid=04465935c028525eae080f56&output=html&source=placeapi_v2', 'overall_rating': '4.0', 'image_num': '7', 'comment_num': '4', 'children': []}","{'lat': 34.652203, 'lng': 112.505729}",洛阳篮球公园,河南省,04465935c028525eae080f56,13783171016,04465935c028525eae080f56,34.652203,112.505729,运动健身;体育场馆,,
73,73,73,黄河路114号,涧西区,洛阳市,1,"{'tag': '运动健身;体育场馆', 'type': 'life', 'detail_url': 'http://api.map.baidu.com/place/detail?uid=ab39b983107645acca213d53&output=html&source=placeapi_v2', 'image_num': '1', 'children': []}","{'lat': 34.661696, 'lng': 112.422381}",洛阳新动力羽毛球俱乐部,河南省,,,ab39b983107645acca213d53,34.661696,112.422381,运动健身;体育场馆,,
74,74,74,航空路和青年路的交叉口附近,西工区,洛阳市,1,"{'tag': '运动健身;体育场馆', 'type': 'life', 'detail_url': 'http://api.map.baidu.com/place/detail?uid=00d3f0dfa5d5fa2f210220c7&output=html&source=placeapi_v2', 'image_num': '1', 'children': []}","{'lat': 34.671641, 'lng': 112.447825}",博德篮球训练营,河南省,,13343884989,00d3f0dfa5d5fa2f210220c7,34.671641,112.447825,运动健身;体育场馆,,
75,75,75,中州中路319金水湾大酒店,西工区,洛阳市,1,"{'tag': '运动健身;体育场馆', 'navi_location': {'lng': 112.44738895324, 'lat': 34.677893319671}, 'type': 'life', 'detail_url': 'http://api.map.baidu.com/place/detail?uid=9fe3b0e265c6e07943ab9a8b&output=html&source=placeapi_v2', 'overall_rating': '0.0', 'image_num': '1', 'comment_num': '1', 'children': []}","{'lat': 34.677683, 'lng': 112.447468}",金水湾大酒店-乒乓球,河南省,9fe3b0e265c6e07943ab9a8b,,9fe3b0e265c6e07943ab9a8b,34.677683,112.447468,运动健身;体育场馆,,
76,76,76,中州西路与涧河街交叉口东北150米,西工区,洛阳市,1,"{'tag': '运动健身;体育场馆', 'type': 'life', 'detail_url': 'http://api.map.baidu.com/place/detail?uid=37c7e6323b7fe03fd8131827&output=html&source=placeapi_v2', 'image_num': '1', 'children': []}","{'lat': 34.670268, 'lng': 112.426085}",篮球场,河南省,,,37c7e6323b7fe03fd8131827,34.670268,112.426085,运动健身;体育场馆,,
77,77,77,河南省洛阳市西工区春都路126,西工区,洛阳市,1,"{'tag': '运动健身;体育场馆', 'type': 'life', 'detail_url': 'http://api.map.baidu.com/place/detail?uid=157539f6ab4352ecd13ce39b&output=html&source=placeapi_v2', 'overall_rating': '3.0', 'image_num': '1', 'children': []}","{'lat': 34.694893, 'lng': 112.452021}",乾记羽毛球馆,河南省,,13937907464,157539f6ab4352ecd13ce39b,34.694893,112.452021,运动健身;体育场馆,,
78,78,78,机场西路九号洛阳新艺学院附近,孟津县,洛阳市,1,"{'tag': '运动健身;体育场馆', 'type': 'life', 'detail_url': 'http://api.map.baidu.com/place/detail?uid=5b29714a99134ad405026f98&output=html&source=placeapi_v2', 'image_num': '1', 'children': []}","{'lat': 34.736794, 'lng': 112.385593}",洛阳空港产业集聚区乒乓球俱乐部,河南省,5b29714a99134ad405026f98,,5b29714a99134ad405026f98,34.736794,112.385593,运动健身;体育场馆,,
79,79,79,中州东路青年宫4楼,老城区,洛阳市,1,"{'tag': '运动健身;体育场馆', 'navi_location': {'lng': 112.48703522676, 'lat': 34.691895884976}, 'type': 'life', 'detail_url': 'http://api.map.baidu.com/place/detail?uid=15465f0b95ca22ac774ff146&output=html&source=placeapi_v2', 'overall_rating': '5.0', 'image_num': '5', 'comment_num': '2', 'children': []}","{'lat': 34.691855, 'lng': 112.48738}",乐旋乒乓球俱乐部,河南省,15465f0b95ca22ac774ff146,18939004129,15465f0b95ca22ac774ff146,34.691855,112.48738,运动健身;体育场馆,,
80,80,80,中州东路310号云天宾馆,老城区,洛阳市,1,"{'tag': '运动健身;体育场馆', 'navi_location': {'lng': 112.48338105559, 'lat': 34.689478784986}, 'type': 'life', 'detail_url': 'http://api.map.baidu.com/place/detail?uid=f5f1d8f5c7e3a70f91114c72&output=html&source=placeapi_v2', 'overall_rating': '0.0', 'image_num': '2', 'comment_num': '1', 'children': []}","{'lat': 34.689634, 'lng': 112.48335}",云天宾馆-乒乓球厅,河南省,f5f1d8f5c7e3a70f91114c72,(0379)65277588,f5f1d8f5c7e3a70f91114c72,34.689634,112.48335,运动健身;体育场馆,,
81,81,81,洛阳市孟津县洛麻线,孟津县,洛阳市,1,"{'tag': '运动健身;体育场馆', 'navi_location': {'lng': 112.3984291003, 'lat': 34.737165060898}, 'type': 'life', 'detail_url': 'http://api.map.baidu.com/place/detail?uid=f8ea7498037ad7a0c8e33ca8&output=html&source=placeapi_v2', 'image_num': '1', 'children': []}","{'lat': 34.737536, 'lng': 112.397896}",洛阳职业技术学院-篮球场,河南省,f8ea7498037ad7a0c8e33ca8,,f8ea7498037ad7a0c8e33ca8,34.737536,112.397896,运动健身;体育场馆,,
82,82,82,安乐街道洛阳桥南向南200米龙安宾馆,洛龙区,洛阳市,1,"{'tag': '教育培训', 'type': 'education', 'detail_url': 'http://api.map.baidu.com/place/detail?uid=870658347387db67f4b916c8&output=html&source=placeapi_v2', 'children': []}","{'lat': 34.662949, 'lng': 112.473231}",洛阳陈涛乒乓球俱乐部,河南省,,,870658347387db67f4b916c8,34.662949,112.473231,教育培训,,
83,83,83,纱厂东路4号第1幢附近,西工区,洛阳市,1,"{'tag': '出入口;门', 'type': 'life', 'detail_url': 'http://api.map.baidu.com/place/detail?uid=681cbe5be56b0cd0081cc714&output=html&source=placeapi_v2', 'image_num': '1', 'children': []}","{'lat': 34.685556, 'lng': 112.443089}",0379羽毛球俱乐部-东北门,河南省,681cbe5be56b0cd0081cc714,,681cbe5be56b0cd0081cc714,34.685556,112.443089,出入口;门,,
84,84,84,小浪底大道540,孟津县,洛阳市,1,"{'tag': '运动健身;体育场馆', 'navi_location': {'lng': 112.4476845775, 'lat': 34.821717794764}, 'type': 'life', 'detail_url': 'http://api.map.baidu.com/place/detail?uid=715e2b6cc3d4758a17948e74&output=html&source=placeapi_v2', 'image_num': '1', 'children': []}","{'lat': 34.821721, 'lng': 112.44787}",金誉乒乓球俱乐部,河南省,,13323881185,715e2b6cc3d4758a17948e74,34.821721,112.44787,运动健身;体育场馆,,
85,85,85,黄河路114号,涧西区,洛阳市,1,"{'tag': '出入口;门', 'type': 'life', 'detail_url': 'http://api.map.baidu.com/place/detail?uid=ed61b8f552d853ac9d95dee4&output=html&source=placeapi_v2', 'image_num': '1', 'children': []}","{'lat': 34.661633, 'lng': 112.42249}",洛阳新动力羽毛球俱乐部-东北门,河南省,ed61b8f552d853ac9d95dee4,,ed61b8f552d853ac9d95dee4,34.661633,112.42249,出入口;门,,
86,86,86,河南省洛阳市西工区汉宫路5号乾元木材公司院内,西工区,洛阳市,1,"{'tag': '运动健身;体育场馆', 'type': 'life', 'detail_url': 'http://api.map.baidu.com/place/detail?uid=d68f98c111a065154054d73d&output=html&source=placeapi_v2', 'overall_rating': '4.0', 'image_num': '4', 'comment_num': '3', 'children': []}","{'lat': 34.695521, 'lng': 112.426276}",7号球馆,河南省,,"(0379)61129817,15138798770",d68f98c111a065154054d73d,34.695521,112.426276,运动健身;体育场馆,,
87,87,87,河南省洛阳市西工区纱厂北路4号纱厂北路丹尼斯向北100米(食品城),西工区,洛阳市,1,"{'tag': '运动健身;体育场馆', 'type': 'life', 'detail_url': 'http://api.map.baidu.com/place/detail?uid=e7841c706f04b930c51e5128&output=html&source=placeapi_v2', 'overall_rating': '5.0', 'image_num': '10', 'comment_num': '3', 'children': []}","{'lat': 34.691321, 'lng': 112.435232}",袋鼠篮球公园,河南省,,18103796907,e7841c706f04b930c51e5128,34.691321,112.435232,运动健身;体育场馆,,
88,88,88,河南省洛阳市西工区陵园路七号院,西工区,洛阳市,1,"{'tag': '运动健身;体育场馆', 'type': 'life', 'detail_url': 'http://api.map.baidu.com/place/detail?uid=7e8f85c13309ae7f21f017e7&output=html&source=placeapi_v2', 'overall_rating': '0.0', 'image_num': '1', 'children': []}","{'lat': 34.698192, 'lng': 112.43865}",海川羽毛球馆,河南省,,(0379)60280091,7e8f85c13309ae7f21f017e7,34.698192,112.43865,运动健身;体育场馆,,
89,89,89,河南省洛阳市西工区春都路126,西工区,洛阳市,1,"{'tag': '运动健身;体育场馆', 'type': 'life', 'detail_url': 'http://api.map.baidu.com/place/detail?uid=157539f6ab4352ecd13ce39b&output=html&source=placeapi_v2', 'overall_rating': '3.0', 'image_num': '1', 'children': []}","{'lat': 34.694893, 'lng': 112.452021}",乾记羽毛球馆,河南省,,13937907464,157539f6ab4352ecd13ce39b,34.694893,112.452021,运动健身;体育场馆,,
90,90,90,机场西路九号洛阳新艺学院附近,孟津县,洛阳市,1,"{'tag': '运动健身;体育场馆', 'type': 'life', 'detail_url': 'http://api.map.baidu.com/place/detail?uid=5b29714a99134ad405026f98&output=html&source=placeapi_v2', 'image_num': '1', 'children': []}","{'lat': 34.736794, 'lng': 112.385593}",洛阳空港产业集聚区乒乓球俱乐部,河南省,5b29714a99134ad405026f98,,5b29714a99134ad405026f98,34.736794,112.385593,运动健身;体育场馆,,
91,91,91,中州东路青年宫4楼,老城区,洛阳市,1,"{'tag': '运动健身;体育场馆', 'navi_location': {'lng': 112.48703522676, 'lat': 34.691895884976}, 'type': 'life', 'detail_url': 'http://api.map.baidu.com/place/detail?uid=15465f0b95ca22ac774ff146&output=html&source=placeapi_v2', 'overall_rating': '5.0', 'image_num': '5', 'comment_num': '2', 'children': []}","{'lat': 34.691855, 'lng': 112.48738}",乐旋乒乓球俱乐部,河南省,15465f0b95ca22ac774ff146,18939004129,15465f0b95ca22ac774ff146,34.691855,112.48738,运动健身;体育场馆,,
92,92,92,中州东路310号云天宾馆,老城区,洛阳市,1,"{'tag': '运动健身;体育场馆', 'navi_location': {'lng': 112.48338105559, 'lat': 34.689478784986}, 'type': 'life', 'detail_url': 'http://api.map.baidu.com/place/detail?uid=f5f1d8f5c7e3a70f91114c72&output=html&source=placeapi_v2', 'overall_rating': '0.0', 'image_num': '2', 'comment_num': '1', 'children': []}","{'lat': 34.689634, 'lng': 112.48335}",云天宾馆-乒乓球厅,河南省,f5f1d8f5c7e3a70f91114c72,(0379)65277588,f5f1d8f5c7e3a70f91114c72,34.689634,112.48335,运动健身;体育场馆,,
93,93,93,洛阳市孟津县洛麻线,孟津县,洛阳市,1,"{'tag': '运动健身;体育场馆', 'navi_location': {'lng': 112.3984291003, 'lat': 34.737165060898}, 'type': 'life', 'detail_url': 'http://api.map.baidu.com/place/detail?uid=f8ea7498037ad7a0c8e33ca8&output=html&source=placeapi_v2', 'image_num': '1', 'children': []}","{'lat': 34.737536, 'lng': 112.397896}",洛阳职业技术学院-篮球场,河南省,f8ea7498037ad7a0c8e33ca8,,f8ea7498037ad7a0c8e33ca8,34.737536,112.397896,运动健身;体育场馆,,
94,94,94,纱厂东路4号第1幢附近,西工区,洛阳市,1,"{'tag': '出入口;门', 'type': 'life', 'detail_url': 'http://api.map.baidu.com/place/detail?uid=681cbe5be56b0cd0081cc714&output=html&source=placeapi_v2', 'image_num': '1', 'children': []}","{'lat': 34.685556, 'lng': 112.443089}",0379羽毛球俱乐部-东北门,河南省,681cbe5be56b0cd0081cc714,,681cbe5be56b0cd0081cc714,34.685556,112.443089,出入口;门,,
95,95,95,小浪底大道540,孟津县,洛阳市,1,"{'tag': '运动健身;体育场馆', 'navi_location': {'lng': 112.4476845775, 'lat': 34.821717794764}, 'type': 'life', 'detail_url': 'http://api.map.baidu.com/place/detail?uid=715e2b6cc3d4758a17948e74&output=html&source=placeapi_v2', 'image_num': '1', 'children': []}","{'lat': 34.821721, 'lng': 112.44787}",金誉乒乓球俱乐部,河南省,,13323881185,715e2b6cc3d4758a17948e74,34.821721,112.44787,运动健身;体育场馆,,
96,96,96,中原路与启明路交叉口西南150米石化体育馆,吉利区,洛阳市,1,"{'tag': '运动健身;体育场馆', 'type': 'life', 'detail_url': 'http://api.map.baidu.com/place/detail?uid=fd5f9b92e08aa17b71455b1e&output=html&source=placeapi_v2', 'image_num': '3', 'children': []}","{'lat': 34.905555, 'lng': 112.611187}",石化羽毛球馆,河南省,,,fd5f9b92e08aa17b71455b1e,34.905555,112.611187,运动健身;体育场馆,,
97,97,97,机场西路九号洛阳新艺学院附近,孟津县,洛阳市,1,"{'tag': '运动健身;体育场馆', 'type': 'life', 'detail_url': 'http://api.map.baidu.com/place/detail?uid=5b29714a99134ad405026f98&output=html&source=placeapi_v2', 'image_num': '1', 'children': []}","{'lat': 34.736794, 'lng': 112.385593}",洛阳空港产业集聚区乒乓球俱乐部,河南省,5b29714a99134ad405026f98,,5b29714a99134ad405026f98,34.736794,112.385593,运动健身;体育场馆,,
98,98,98,洛阳市孟津县洛麻线,孟津县,洛阳市,1,"{'tag': '运动健身;体育场馆', 'navi_location': {'lng': 112.3984291003, 'lat': 34.737165060898}, 'type': 'life', 'detail_url': 'http://api.map.baidu.com/place/detail?uid=f8ea7498037ad7a0c8e33ca8&output=html&source=placeapi_v2', 'image_num': '1', 'children': []}","{'lat': 34.737536, 'lng': 112.397896}",洛阳职业技术学院-篮球场,河南省,f8ea7498037ad7a0c8e33ca8,,f8ea7498037ad7a0c8e33ca8,34.737536,112.397896,运动健身;体育场馆,,
99,99,99,小浪底大道540,孟津县,洛阳市,1,"{'tag': '运动健身;体育场馆', 'navi_location': {'lng': 112.4476845775, 'lat': 34.821717794764}, 'type': 'life', 'detail_url': 'http://api.map.baidu.com/place/detail?uid=715e2b6cc3d4758a17948e74&output=html&source=placeapi_v2', 'image_num': '1', 'children': []}","{'lat': 34.821721, 'lng': 112.44787}",金誉乒乓球俱乐部,河南省,,13323881185,715e2b6cc3d4758a17948e74,34.821721,112.44787,运动健身;体育场馆,,
100,100,100,河南省洛阳市洛龙区S319(洛宜公路),洛龙区,洛阳市,1,"{'tag': '运动健身;体育场馆', 'type': 'life', 'detail_url': 'http://api.map.baidu.com/place/detail?uid=f46bd14fa5701566e215f955&output=html&source=placeapi_v2', 'image_num': '2', 'children': []}","{'lat': 34.664203, 'lng': 112.473752}",Garden Court花园球馆(花卉市场店),河南省,,,f46bd14fa5701566e215f955,34.664203,112.473752,运动健身;体育场馆,,
101,101,101,河南省洛阳市洛龙区太康路自行车赛场西侧,洛龙区,洛阳市,1,"{'tag': '运动健身;体育场馆', 'type': 'life', 'detail_url': 'http://api.map.baidu.com/place/detail?uid=430b7990b8a93698c2f1cf2e&output=html&source=placeapi_v2', 'image_num': '1', 'children': []}","{'lat': 34.630555, 'lng': 112.436195}",体育中心-室外篮球场,河南省,430b7990b8a93698c2f1cf2e,,430b7990b8a93698c2f1cf2e,34.630555,112.436195,运动健身;体育场馆,,
102,102,102,洛阳市洛龙区开元大道286号洛阳会展中心5楼,洛龙区,洛阳市,1,"{'tag': '运动健身;体育场馆', 'navi_location': {'lng': 112.43678809304, 'lat': 34.62391942249}, 'type': 'life', 'detail_url': 'http://api.map.baidu.com/place/detail?uid=215bd5e5e3b4534dddee8b57&output=html&source=placeapi_v2', 'overall_rating': '0.0', 'image_num': '2', 'comment_num': '1', 'children': []}","{'lat': 34.623741, 'lng': 112.437417}",超越羽毛球馆,河南省,,(0379)65997636,215bd5e5e3b4534dddee8b57,34.623741,112.437417,运动健身;体育场馆,,
103,103,103,河南省洛阳市西工区汉宫路5号乾元木材公司院内,西工区,洛阳市,1,"{'tag': '运动健身;体育场馆', 'type': 'life', 'detail_url': 'http://api.map.baidu.com/place/detail?uid=d68f98c111a065154054d73d&output=html&source=placeapi_v2', 'overall_rating': '4.0', 'image_num': '4', 'comment_num': '3', 'children': []}","{'lat': 34.695521, 'lng': 112.426276}",7号球馆,河南省,,"(0379)61129817,15138798770",d68f98c111a065154054d73d,34.695521,112.426276,运动健身;体育场馆,,
104,104,104,河南省洛阳市西工区纱厂北路4号纱厂北路丹尼斯向北100米(食品城),西工区,洛阳市,1,"{'tag': '运动健身;体育场馆', 'type': 'life', 'detail_url': 'http://api.map.baidu.com/place/detail?uid=e7841c706f04b930c51e5128&output=html&source=placeapi_v2', 'overall_rating': '5.0', 'image_num': '10', 'comment_num': '3', 'children': []}","{'lat': 34.691321, 'lng': 112.435232}",袋鼠篮球公园,河南省,,18103796907,e7841c706f04b930c51e5128,34.691321,112.435232,运动健身;体育场馆,,
105,105,105,河南省洛阳市洛龙区洛河南岸洛阳新区,洛龙区,洛阳市,1,"{'tag': '运动健身;体育场馆', 'type': 'life', 'detail_url': 'http://api.map.baidu.com/place/detail?uid=806d4d9b577137be96ca0752&output=html&source=placeapi_v2', 'overall_rating': '5.0', 'image_num': '1', 'comment_num': '2', 'children': []}","{'lat': 34.623437, 'lng': 112.440247}",新区体育中心篮球馆,河南省,806d4d9b577137be96ca0752,,806d4d9b577137be96ca0752,34.623437,112.440247,运动健身;体育场馆,,
106,106,106,华夏路与春城路交叉口东南150米,涧西区,洛阳市,1,"{'tag': '运动健身;体育场馆', 'type': 'life', 'detail_url': 'http://api.map.baidu.com/place/detail?uid=f14e340c59b018194207c19a&output=html&source=placeapi_v2', 'image_num': '1', 'children': []}","{'lat': 34.625851, 'lng': 112.399772}",春盈羽球馆,河南省,,(0379)60658167,f14e340c59b018194207c19a,34.625851,112.399772,运动健身;体育场馆,,
107,107,107,健康路与航空路交叉口南50米,西工区,洛阳市,1,"{'tag': '运动健身;体育场馆', 'type': 'life', 'detail_url': 'http://api.map.baidu.com/place/detail?uid=7b54f15737294c0481288a5a&output=html&source=placeapi_v2', 'image_num': '1', 'children': []}","{'lat': 34.671668, 'lng': 112.447659}",篮球馆,河南省,,,7b54f15737294c0481288a5a,34.671668,112.447659,运动健身;体育场馆,,
108,108,108,丽新路青少年宫,涧西区,洛阳市,1,"{'tag': '运动健身;体育场馆', 'type': 'life', 'detail_url': 'http://api.map.baidu.com/place/detail?uid=cead7693174b5420d42ce2b1&output=html&source=placeapi_v2', 'image_num': '1', 'children': []}","{'lat': 34.661976, 'lng': 112.416052}",洛阳市青少年宫-羽毛球馆,河南省,cead7693174b5420d42ce2b1,,cead7693174b5420d42ce2b1,34.661976,112.416052,运动健身;体育场馆,,
109,109,109,河南省洛阳市涧西区陇北二路19号,涧西区,洛阳市,1,"{'tag': '运动健身;体育场馆', 'type': 'life', 'detail_url': 'http://api.map.baidu.com/place/detail?uid=2ed0096b93a3a59008f5eb1e&output=html&source=placeapi_v2', 'image_num': '3', 'children': []}","{'lat': 34.672487, 'lng': 112.387299}",乒乓球俱乐部,河南省,2ed0096b93a3a59008f5eb1e,,2ed0096b93a3a59008f5eb1e,34.672487,112.387299,运动健身;体育场馆,,
110,110,110,自强路附近,洛龙区,洛阳市,1,"{'tag': '运动健身;体育场馆', 'type': 'life', 'detail_url': 'http://api.map.baidu.com/place/detail?uid=d5d6197ccd12bef7fa0cada0&output=html&source=placeapi_v2', 'overall_rating': '0.0', 'image_num': '1', 'children': []}","{'lat': 34.607052, 'lng': 112.421895}",河南科技大学开元校区-篮球场,河南省,d5d6197ccd12bef7fa0cada0,,d5d6197ccd12bef7fa0cada0,34.607052,112.421895,运动健身;体育场馆,,
111,111,111,河南省洛阳市西工区陵园路七号院,西工区,洛阳市,1,"{'tag': '运动健身;体育场馆', 'type': 'life', 'detail_url': 'http://api.map.baidu.com/place/detail?uid=7e8f85c13309ae7f21f017e7&output=html&source=placeapi_v2', 'overall_rating': '0.0', 'image_num': '1', 'children': []}","{'lat': 34.698192, 'lng': 112.43865}",海川羽毛球馆,河南省,,(0379)60280091,7e8f85c13309ae7f21f017e7,34.698192,112.43865,运动健身;体育场馆,,
112,112,112,安乐镇茹刘线,洛龙区,洛阳市,1,"{'tag': '运动健身;体育场馆', 'type': 'life', 'detail_url': 'http://api.map.baidu.com/place/detail?uid=04465935c028525eae080f56&output=html&source=placeapi_v2', 'overall_rating': '4.0', 'image_num': '7', 'comment_num': '4', 'children': []}","{'lat': 34.652203, 'lng': 112.505729}",洛阳篮球公园,河南省,04465935c028525eae080f56,13783171016,04465935c028525eae080f56,34.652203,112.505729,运动健身;体育场馆,,
113,113,113,黄河路114号,涧西区,洛阳市,1,"{'tag': '运动健身;体育场馆', 'type': 'life', 'detail_url': 'http://api.map.baidu.com/place/detail?uid=ab39b983107645acca213d53&output=html&source=placeapi_v2', 'image_num': '1', 'children': []}","{'lat': 34.661696, 'lng': 112.422381}",洛阳新动力羽毛球俱乐部,河南省,,,ab39b983107645acca213d53,34.661696,112.422381,运动健身;体育场馆,,
114,114,114,河南省洛阳市洛龙区李贺路与自强路交叉口西南150米,洛龙区,洛阳市,1,"{'tag': '运动健身;体育场馆', 'type': 'life', 'detail_url': 'http://api.map.baidu.com/place/detail?uid=b3bc20fa5578e64d8605bfbb&output=html&source=placeapi_v2', 'image_num': '1', 'children': []}","{'lat': 34.606731, 'lng': 112.420699}",河科大健身房羽毛球馆,河南省,b3bc20fa5578e64d8605bfbb,,b3bc20fa5578e64d8605bfbb,34.606731,112.420699,运动健身;体育场馆,,
115,115,115,河南省洛阳市洛龙区春咏路与滋兰路交叉口西北150米,洛龙区,洛阳市,1,"{'tag': '运动健身;体育场馆', 'type': 'life', 'detail_url': 'http://api.map.baidu.com/place/detail?uid=a8cd5263c0b39139f6c59cfb&output=html&source=placeapi_v2', 'image_num': '1', 'children': []}","{'lat': 34.622096, 'lng': 112.427507}",洛阳理工学院开元校区篮球场,河南省,a8cd5263c0b39139f6c59cfb,,a8cd5263c0b39139f6c59cfb,34.622096,112.427507,运动健身;体育场馆,,
116,116,116,航空路和青年路的交叉口附近,西工区,洛阳市,1,"{'tag': '运动健身;体育场馆', 'type': 'life', 'detail_url': 'http://api.map.baidu.com/place/detail?uid=00d3f0dfa5d5fa2f210220c7&output=html&source=placeapi_v2', 'image_num': '1', 'children': []}","{'lat': 34.671641, 'lng': 112.447825}",博德篮球训练营,河南省,,13343884989,00d3f0dfa5d5fa2f210220c7,34.671641,112.447825,运动健身;体育场馆,,
117,117,117,中州中路319金水湾大酒店,西工区,洛阳市,1,"{'tag': '运动健身;体育场馆', 'navi_location': {'lng': 112.44738895324, 'lat': 34.677893319671}, 'type': 'life', 'detail_url': 'http://api.map.baidu.com/place/detail?uid=9fe3b0e265c6e07943ab9a8b&output=html&source=placeapi_v2', 'overall_rating': '0.0', 'image_num': '1', 'comment_num': '1', 'children': []}","{'lat': 34.677683, 'lng': 112.447468}",金水湾大酒店-乒乓球,河南省,9fe3b0e265c6e07943ab9a8b,,9fe3b0e265c6e07943ab9a8b,34.677683,112.447468,运动健身;体育场馆,,
118,118,118,中州西路与涧河街交叉口东北150米,西工区,洛阳市,1,"{'tag': '运动健身;体育场馆', 'type': 'life', 'detail_url': 'http://api.map.baidu.com/place/detail?uid=37c7e6323b7fe03fd8131827&output=html&source=placeapi_v2', 'image_num': '1', 'children': []}","{'lat': 34.670268, 'lng': 112.426085}",篮球场,河南省,,,37c7e6323b7fe03fd8131827,34.670268,112.426085,运动健身;体育场馆,,
119,119,119,河南省洛阳市洛龙区洛阳理工学院大学生骨干培训学校,洛龙区,洛阳市,1,"{'tag': '运动健身;体育场馆', 'type': 'life', 'detail_url': 'http://api.map.baidu.com/place/detail?uid=c0839b98fbd96686471a322c&output=html&source=placeapi_v2', 'image_num': '2', 'children': []}","{'lat': 34.622262, 'lng': 112.426537}",洛阳理工学院羽毛球训练房,河南省,c0839b98fbd96686471a322c,,c0839b98fbd96686471a322c,34.622262,112.426537,运动健身;体育场馆,,
120,120,120,学子街8号,洛龙区,洛阳市,1,"{'tag': '运动健身;体育场馆', 'type': 'life', 'detail_url': 'http://api.map.baidu.com/place/detail?uid=91c469cac4194fccd72ce2f1&output=html&source=placeapi_v2', 'image_num': '1', 'children': []}","{'lat': 34.620457, 'lng': 112.424629}",洛阳理工学院篮球场,河南省,91c469cac4194fccd72ce2f1,,91c469cac4194fccd72ce2f1,34.620457,112.424629,运动健身;体育场馆,,
121,121,121,河南省洛阳市西工区春都路126,西工区,洛阳市,1,"{'tag': '运动健身;体育场馆', 'type': 'life', 'detail_url': 'http://api.map.baidu.com/place/detail?uid=157539f6ab4352ecd13ce39b&output=html&source=placeapi_v2', 'overall_rating': '3.0', 'image_num': '1', 'children': []}","{'lat': 34.694893, 'lng': 112.452021}",乾记羽毛球馆,河南省,,13937907464,157539f6ab4352ecd13ce39b,34.694893,112.452021,运动健身;体育场馆,,
122,122,122,机场西路九号洛阳新艺学院附近,孟津县,洛阳市,1,"{'tag': '运动健身;体育场馆', 'type': 'life', 'detail_url': 'http://api.map.baidu.com/place/detail?uid=5b29714a99134ad405026f98&output=html&source=placeapi_v2', 'image_num': '1', 'children': []}","{'lat': 34.736794, 'lng': 112.385593}",洛阳空港产业集聚区乒乓球俱乐部,河南省,5b29714a99134ad405026f98,,5b29714a99134ad405026f98,34.736794,112.385593,运动健身;体育场馆,,
123,123,123,中州东路青年宫4楼,老城区,洛阳市,1,"{'tag': '运动健身;体育场馆', 'navi_location': {'lng': 112.48703522676, 'lat': 34.691895884976}, 'type': 'life', 'detail_url': 'http://api.map.baidu.com/place/detail?uid=15465f0b95ca22ac774ff146&output=html&source=placeapi_v2', 'overall_rating': '5.0', 'image_num': '5', 'comment_num': '2', 'children': []}","{'lat': 34.691855, 'lng': 112.48738}",乐旋乒乓球俱乐部,河南省,15465f0b95ca22ac774ff146,18939004129,15465f0b95ca22ac774ff146,34.691855,112.48738,运动健身;体育场馆,,
124,124,124,中州东路310号云天宾馆,老城区,洛阳市,1,"{'tag': '运动健身;体育场馆', 'navi_location': {'lng': 112.48338105559, 'lat': 34.689478784986}, 'type': 'life', 'detail_url': 'http://api.map.baidu.com/place/detail?uid=f5f1d8f5c7e3a70f91114c72&output=html&source=placeapi_v2', 'overall_rating': '0.0', 'image_num': '2', 'comment_num': '1', 'children': []}","{'lat': 34.689634, 'lng': 112.48335}",云天宾馆-乒乓球厅,河南省,f5f1d8f5c7e3a70f91114c72,(0379)65277588,f5f1d8f5c7e3a70f91114c72,34.689634,112.48335,运动健身;体育场馆,,
125,125,125,洛阳市孟津县洛麻线,孟津县,洛阳市,1,"{'tag': '运动健身;体育场馆', 'navi_location': {'lng': 112.3984291003, 'lat': 34.737165060898}, 'type': 'life', 'detail_url': 'http://api.map.baidu.com/place/detail?uid=f8ea7498037ad7a0c8e33ca8&output=html&source=placeapi_v2', 'image_num': '1', 'children': []}","{'lat': 34.737536, 'lng': 112.397896}",洛阳职业技术学院-篮球场,河南省,f8ea7498037ad7a0c8e33ca8,,f8ea7498037ad7a0c8e33ca8,34.737536,112.397896,运动健身;体育场馆,,
126,126,126,开元大道239号钼都利豪国际饭店19层,洛龙区,洛阳市,1,"{'tag': '运动健身;体育场馆', 'navi_location': {'lng': 112.45219416099, 'lat': 34.622932804797}, 'type': 'life', 'detail_url': 'http://api.map.baidu.com/place/detail?uid=1257f8ad389e3bedd0ff2331&output=html&source=placeapi_v2', 'overall_rating': '0.0', 'image_num': '1', 'children': []}","{'lat': 34.622723, 'lng': 112.452235}",钼都利豪国际饭店-乒乓球室,河南省,1257f8ad389e3bedd0ff2331,(0379)65979999,1257f8ad389e3bedd0ff2331,34.622723,112.452235,运动健身;体育场馆,,
127,127,127,安乐街道洛阳桥南向南200米龙安宾馆,洛龙区,洛阳市,1,"{'tag': '教育培训', 'type': 'education', 'detail_url': 'http://api.map.baidu.com/place/detail?uid=870658347387db67f4b916c8&output=html&source=placeapi_v2', 'children': []}","{'lat': 34.662949, 'lng': 112.473231}",洛阳陈涛乒乓球俱乐部,河南省,,,870658347387db67f4b916c8,34.662949,112.473231,教育培训,,
128,128,128,偃师市商都夜市,偃师市,洛阳市,1,"{'tag': '运动健身;体育场馆', 'type': 'life', 'detail_url': 'http://api.map.baidu.com/place/detail?uid=0aa884ed2d48cd7e89f15d94&output=html&source=placeapi_v2', 'image_num': '1', 'children': []}","{'lat': 34.630802, 'lng': 112.734821}",偃师市佳一羽毛球俱乐部商都夜市球馆,河南省,,,0aa884ed2d48cd7e89f15d94,34.630802,112.734821,运动健身;体育场馆,,
129,129,129,纱厂东路4号第1幢附近,西工区,洛阳市,1,"{'tag': '出入口;门', 'type': 'life', 'detail_url': 'http://api.map.baidu.com/place/detail?uid=681cbe5be56b0cd0081cc714&output=html&source=placeapi_v2', 'image_num': '1', 'children': []}","{'lat': 34.685556, 'lng': 112.443089}",0379羽毛球俱乐部-东北门,河南省,681cbe5be56b0cd0081cc714,,681cbe5be56b0cd0081cc714,34.685556,112.443089,出入口;门,,
130,130,130,黄河路114号,涧西区,洛阳市,1,"{'tag': '出入口;门', 'type': 'life', 'detail_url': 'http://api.map.baidu.com/place/detail?uid=ed61b8f552d853ac9d95dee4&output=html&source=placeapi_v2', 'image_num': '1', 'children': []}","{'lat': 34.661633, 'lng': 112.42249}",洛阳新动力羽毛球俱乐部-东北门,河南省,ed61b8f552d853ac9d95dee4,,ed61b8f552d853ac9d95dee4,34.661633,112.42249,出入口;门,,
131,131,131,关林街道牡丹大道广利街交叉口向东一百五十米路南,洛龙区,洛阳市,1,"{'tag': '运动健身;体育场馆', 'type': 'life', 'detail_url': 'http://api.map.baidu.com/place/detail?uid=5ab3f8d01a667d02d92f28c3&output=html&source=placeapi_v2', 'image_num': '1', 'children': []}","{'lat': 34.61713, 'lng': 112.473437}",红双喜乒乓球俱乐部,河南省,,,5ab3f8d01a667d02d92f28c3,34.61713,112.473437,运动健身;体育场馆,,
132,132,132,河南省洛阳市洛龙区S319(洛宜公路),洛龙区,洛阳市,1,"{'tag': '运动健身;体育场馆', 'type': 'life', 'detail_url': 'http://api.map.baidu.com/place/detail?uid=f46bd14fa5701566e215f955&output=html&source=placeapi_v2', 'image_num': '2', 'children': []}","{'lat': 34.664203, 'lng': 112.473752}",Garden Court花园球馆(花卉市场店),河南省,,,f46bd14fa5701566e215f955,34.664203,112.473752,运动健身;体育场馆,,
133,133,133,河南省洛阳市洛龙区太康路自行车赛场西侧,洛龙区,洛阳市,1,"{'tag': '运动健身;体育场馆', 'type': 'life', 'detail_url': 'http://api.map.baidu.com/place/detail?uid=430b7990b8a93698c2f1cf2e&output=html&source=placeapi_v2', 'image_num': '1', 'children': []}","{'lat': 34.630555, 'lng': 112.436195}",体育中心-室外篮球场,河南省,430b7990b8a93698c2f1cf2e,,430b7990b8a93698c2f1cf2e,34.630555,112.436195,运动健身;体育场馆,,
134,134,134,洛阳市洛龙区开元大道286号洛阳会展中心5楼,洛龙区,洛阳市,1,"{'tag': '运动健身;体育场馆', 'navi_location': {'lng': 112.43678809304, 'lat': 34.62391942249}, 'type': 'life', 'detail_url': 'http://api.map.baidu.com/place/detail?uid=215bd5e5e3b4534dddee8b57&output=html&source=placeapi_v2', 'overall_rating': '0.0', 'image_num': '2', 'comment_num': '1', 'children': []}","{'lat': 34.623741, 'lng': 112.437417}",超越羽毛球馆,河南省,,(0379)65997636,215bd5e5e3b4534dddee8b57,34.623741,112.437417,运动健身;体育场馆,,
135,135,135,河南省洛阳市西工区汉宫路5号乾元木材公司院内,西工区,洛阳市,1,"{'tag': '运动健身;体育场馆', 'type': 'life', 'detail_url': 'http://api.map.baidu.com/place/detail?uid=d68f98c111a065154054d73d&output=html&source=placeapi_v2', 'overall_rating': '4.0', 'image_num': '4', 'comment_num': '3', 'children': []}","{'lat': 34.695521, 'lng': 112.426276}",7号球馆,河南省,,"(0379)61129817,15138798770",d68f98c111a065154054d73d,34.695521,112.426276,运动健身;体育场馆,,
136,136,136,河南省洛阳市西工区纱厂北路4号纱厂北路丹尼斯向北100米(食品城),西工区,洛阳市,1,"{'tag': '运动健身;体育场馆', 'type': 'life', 'detail_url': 'http://api.map.baidu.com/place/detail?uid=e7841c706f04b930c51e5128&output=html&source=placeapi_v2', 'overall_rating': '5.0', 'image_num': '10', 'comment_num': '3', 'children': []}","{'lat': 34.691321, 'lng': 112.435232}",袋鼠篮球公园,河南省,,18103796907,e7841c706f04b930c51e5128,34.691321,112.435232,运动健身;体育场馆,,
137,137,137,河南省洛阳市洛龙区洛河南岸洛阳新区,洛龙区,洛阳市,1,"{'tag': '运动健身;体育场馆', 'type': 'life', 'detail_url': 'http://api.map.baidu.com/place/detail?uid=806d4d9b577137be96ca0752&output=html&source=placeapi_v2', 'overall_rating': '5.0', 'image_num': '1', 'comment_num': '2', 'children': []}","{'lat': 34.623437, 'lng': 112.440247}",新区体育中心篮球馆,河南省,806d4d9b577137be96ca0752,,806d4d9b577137be96ca0752,34.623437,112.440247,运动健身;体育场馆,,
138,138,138,华夏路与春城路交叉口东南150米,涧西区,洛阳市,1,"{'tag': '运动健身;体育场馆', 'type': 'life', 'detail_url': 'http://api.map.baidu.com/place/detail?uid=f14e340c59b018194207c19a&output=html&source=placeapi_v2', 'image_num': '1', 'children': []}","{'lat': 34.625851, 'lng': 112.399772}",春盈羽球馆,河南省,,(0379)60658167,f14e340c59b018194207c19a,34.625851,112.399772,运动健身;体育场馆,,
139,139,139,健康路与航空路交叉口南50米,西工区,洛阳市,1,"{'tag': '运动健身;体育场馆', 'type': 'life', 'detail_url': 'http://api.map.baidu.com/place/detail?uid=7b54f15737294c0481288a5a&output=html&source=placeapi_v2', 'image_num': '1', 'children': []}","{'lat': 34.671668, 'lng': 112.447659}",篮球馆,河南省,,,7b54f15737294c0481288a5a,34.671668,112.447659,运动健身;体育场馆,,
140,140,140,丽新路青少年宫,涧西区,洛阳市,1,"{'tag': '运动健身;体育场馆', 'type': 'life', 'detail_url': 'http://api.map.baidu.com/place/detail?uid=cead7693174b5420d42ce2b1&output=html&source=placeapi_v2', 'image_num': '1', 'children': []}","{'lat': 34.661976, 'lng': 112.416052}",洛阳市青少年宫-羽毛球馆,河南省,cead7693174b5420d42ce2b1,,cead7693174b5420d42ce2b1,34.661976,112.416052,运动健身;体育场馆,,
141,141,141,河南省洛阳市涧西区陇北二路19号,涧西区,洛阳市,1,"{'tag': '运动健身;体育场馆', 'type': 'life', 'detail_url': 'http://api.map.baidu.com/place/detail?uid=2ed0096b93a3a59008f5eb1e&output=html&source=placeapi_v2', 'image_num': '3', 'children': []}","{'lat': 34.672487, 'lng': 112.387299}",乒乓球俱乐部,河南省,2ed0096b93a3a59008f5eb1e,,2ed0096b93a3a59008f5eb1e,34.672487,112.387299,运动健身;体育场馆,,
142,142,142,自强路附近,洛龙区,洛阳市,1,"{'tag': '运动健身;体育场馆', 'type': 'life', 'detail_url': 'http://api.map.baidu.com/place/detail?uid=d5d6197ccd12bef7fa0cada0&output=html&source=placeapi_v2', 'overall_rating': '0.0', 'image_num': '1', 'children': []}","{'lat': 34.607052, 'lng': 112.421895}",河南科技大学开元校区-篮球场,河南省,d5d6197ccd12bef7fa0cada0,,d5d6197ccd12bef7fa0cada0,34.607052,112.421895,运动健身;体育场馆,,
143,143,143,河南省洛阳市西工区陵园路七号院,西工区,洛阳市,1,"{'tag': '运动健身;体育场馆', 'type': 'life', 'detail_url': 'http://api.map.baidu.com/place/detail?uid=7e8f85c13309ae7f21f017e7&output=html&source=placeapi_v2', 'overall_rating': '0.0', 'image_num': '1', 'children': []}","{'lat': 34.698192, 'lng': 112.43865}",海川羽毛球馆,河南省,,(0379)60280091,7e8f85c13309ae7f21f017e7,34.698192,112.43865,运动健身;体育场馆,,
144,144,144,安乐镇茹刘线,洛龙区,洛阳市,1,"{'tag': '运动健身;体育场馆', 'type': 'life', 'detail_url': 'http://api.map.baidu.com/place/detail?uid=04465935c028525eae080f56&output=html&source=placeapi_v2', 'overall_rating': '4.0', 'image_num': '7', 'comment_num': '4', 'children': []}","{'lat': 34.652203, 'lng': 112.505729}",洛阳篮球公园,河南省,04465935c028525eae080f56,13783171016,04465935c028525eae080f56,34.652203,112.505729,运动健身;体育场馆,,
145,145,145,黄河路114号,涧西区,洛阳市,1,"{'tag': '运动健身;体育场馆', 'type': 'life', 'detail_url': 'http://api.map.baidu.com/place/detail?uid=ab39b983107645acca213d53&output=html&source=placeapi_v2', 'image_num': '1', 'children': []}","{'lat': 34.661696, 'lng': 112.422381}",洛阳新动力羽毛球俱乐部,河南省,,,ab39b983107645acca213d53,34.661696,112.422381,运动健身;体育场馆,,
146,146,146,河南省洛阳市洛龙区李贺路与自强路交叉口西南150米,洛龙区,洛阳市,1,"{'tag': '运动健身;体育场馆', 'type': 'life', 'detail_url': 'http://api.map.baidu.com/place/detail?uid=b3bc20fa5578e64d8605bfbb&output=html&source=placeapi_v2', 'image_num': '1', 'children': []}","{'lat': 34.606731, 'lng': 112.420699}",河科大健身房羽毛球馆,河南省,b3bc20fa5578e64d8605bfbb,,b3bc20fa5578e64d8605bfbb,34.606731,112.420699,运动健身;体育场馆,,
147,147,147,河南省洛阳市洛龙区春咏路与滋兰路交叉口西北150米,洛龙区,洛阳市,1,"{'tag': '运动健身;体育场馆', 'type': 'life', 'detail_url': 'http://api.map.baidu.com/place/detail?uid=a8cd5263c0b39139f6c59cfb&output=html&source=placeapi_v2', 'image_num': '1', 'children': []}","{'lat': 34.622096, 'lng': 112.427507}",洛阳理工学院开元校区篮球场,河南省,a8cd5263c0b39139f6c59cfb,,a8cd5263c0b39139f6c59cfb,34.622096,112.427507,运动健身;体育场馆,,
148,148,148,航空路和青年路的交叉口附近,西工区,洛阳市,1,"{'tag': '运动健身;体育场馆', 'type': 'life', 'detail_url': 'http://api.map.baidu.com/place/detail?uid=00d3f0dfa5d5fa2f210220c7&output=html&source=placeapi_v2', 'image_num': '1', 'children': []}","{'lat': 34.671641, 'lng': 112.447825}",博德篮球训练营,河南省,,13343884989,00d3f0dfa5d5fa2f210220c7,34.671641,112.447825,运动健身;体育场馆,,
149,149,149,中州中路319金水湾大酒店,西工区,洛阳市,1,"{'tag': '运动健身;体育场馆', 'navi_location': {'lng': 112.44738895324, 'lat': 34.677893319671}, 'type': 'life', 'detail_url': 'http://api.map.baidu.com/place/detail?uid=9fe3b0e265c6e07943ab9a8b&output=html&source=placeapi_v2', 'overall_rating': '0.0', 'image_num': '1', 'comment_num': '1', 'children': []}","{'lat': 34.677683, 'lng': 112.447468}",金水湾大酒店-乒乓球,河南省,9fe3b0e265c6e07943ab9a8b,,9fe3b0e265c6e07943ab9a8b,34.677683,112.447468,运动健身;体育场馆,,
150,150,150,中州西路与涧河街交叉口东北150米,西工区,洛阳市,1,"{'tag': '运动健身;体育场馆', 'type': 'life', 'detail_url': 'http://api.map.baidu.com/place/detail?uid=37c7e6323b7fe03fd8131827&output=html&source=placeapi_v2', 'image_num': '1', 'children': []}","{'lat': 34.670268, 'lng': 112.426085}",篮球场,河南省,,,37c7e6323b7fe03fd8131827,34.670268,112.426085,运动健身;体育场馆,,
151,151,151,河南省洛阳市洛龙区洛阳理工学院大学生骨干培训学校,洛龙区,洛阳市,1,"{'tag': '运动健身;体育场馆', 'type': 'life', 'detail_url': 'http://api.map.baidu.com/place/detail?uid=c0839b98fbd96686471a322c&output=html&source=placeapi_v2', 'image_num': '2', 'children': []}","{'lat': 34.622262, 'lng': 112.426537}",洛阳理工学院羽毛球训练房,河南省,c0839b98fbd96686471a322c,,c0839b98fbd96686471a322c,34.622262,112.426537,运动健身;体育场馆,,
152,152,152,学子街8号,洛龙区,洛阳市,1,"{'tag': '运动健身;体育场馆', 'type': 'life', 'detail_url': 'http://api.map.baidu.com/place/detail?uid=91c469cac4194fccd72ce2f1&output=html&source=placeapi_v2', 'image_num': '1', 'children': []}","{'lat': 34.620457, 'lng': 112.424629}",洛阳理工学院篮球场,河南省,91c469cac4194fccd72ce2f1,,91c469cac4194fccd72ce2f1,34.620457,112.424629,运动健身;体育场馆,,
153,153,153,河南省洛阳市西工区春都路126,西工区,洛阳市,1,"{'tag': '运动健身;体育场馆', 'type': 'life', 'detail_url': 'http://api.map.baidu.com/place/detail?uid=157539f6ab4352ecd13ce39b&output=html&source=placeapi_v2', 'overall_rating': '3.0', 'image_num': '1', 'children': []}","{'lat': 34.694893, 'lng': 112.452021}",乾记羽毛球馆,河南省,,13937907464,157539f6ab4352ecd13ce39b,34.694893,112.452021,运动健身;体育场馆,,
154,154,154,机场西路九号洛阳新艺学院附近,孟津县,洛阳市,1,"{'tag': '运动健身;体育场馆', 'type': 'life', 'detail_url': 'http://api.map.baidu.com/place/detail?uid=5b29714a99134ad405026f98&output=html&source=placeapi_v2', 'image_num': '1', 'children': []}","{'lat': 34.736794, 'lng': 112.385593}",洛阳空港产业集聚区乒乓球俱乐部,河南省,5b29714a99134ad405026f98,,5b29714a99134ad405026f98,34.736794,112.385593,运动健身;体育场馆,,
155,155,155,中州东路青年宫4楼,老城区,洛阳市,1,"{'tag': '运动健身;体育场馆', 'navi_location': {'lng': 112.48703522676, 'lat': 34.691895884976}, 'type': 'life', 'detail_url': 'http://api.map.baidu.com/place/detail?uid=15465f0b95ca22ac774ff146&output=html&source=placeapi_v2', 'overall_rating': '5.0', 'image_num': '5', 'comment_num': '2', 'children': []}","{'lat': 34.691855, 'lng': 112.48738}",乐旋乒乓球俱乐部,河南省,15465f0b95ca22ac774ff146,18939004129,15465f0b95ca22ac774ff146,34.691855,112.48738,运动健身;体育场馆,,
156,156,156,中州东路310号云天宾馆,老城区,洛阳市,1,"{'tag': '运动健身;体育场馆', 'navi_location': {'lng': 112.48338105559, 'lat': 34.689478784986}, 'type': 'life', 'detail_url': 'http://api.map.baidu.com/place/detail?uid=f5f1d8f5c7e3a70f91114c72&output=html&source=placeapi_v2', 'overall_rating': '0.0', 'image_num': '2', 'comment_num': '1', 'children': []}","{'lat': 34.689634, 'lng': 112.48335}",云天宾馆-乒乓球厅,河南省,f5f1d8f5c7e3a70f91114c72,(0379)65277588,f5f1d8f5c7e3a70f91114c72,34.689634,112.48335,运动健身;体育场馆,,
157,157,157,洛阳市孟津县洛麻线,孟津县,洛阳市,1,"{'tag': '运动健身;体育场馆', 'navi_location': {'lng': 112.3984291003, 'lat': 34.737165060898}, 'type': 'life', 'detail_url': 'http://api.map.baidu.com/place/detail?uid=f8ea7498037ad7a0c8e33ca8&output=html&source=placeapi_v2', 'image_num': '1', 'children': []}","{'lat': 34.737536, 'lng': 112.397896}",洛阳职业技术学院-篮球场,河南省,f8ea7498037ad7a0c8e33ca8,,f8ea7498037ad7a0c8e33ca8,34.737536,112.397896,运动健身;体育场馆,,
158,158,158,开元大道239号钼都利豪国际饭店19层,洛龙区,洛阳市,1,"{'tag': '运动健身;体育场馆', 'navi_location': {'lng': 112.45219416099, 'lat': 34.622932804797}, 'type': 'life', 'detail_url': 'http://api.map.baidu.com/place/detail?uid=1257f8ad389e3bedd0ff2331&output=html&source=placeapi_v2', 'overall_rating': '0.0', 'image_num': '1', 'children': []}","{'lat': 34.622723, 'lng': 112.452235}",钼都利豪国际饭店-乒乓球室,河南省,1257f8ad389e3bedd0ff2331,(0379)65979999,1257f8ad389e3bedd0ff2331,34.622723,112.452235,运动健身;体育场馆,,
159,159,159,安乐街道洛阳桥南向南200米龙安宾馆,洛龙区,洛阳市,1,"{'tag': '教育培训', 'type': 'education', 'detail_url': 'http://api.map.baidu.com/place/detail?uid=870658347387db67f4b916c8&output=html&source=placeapi_v2', 'children': []}","{'lat': 34.662949, 'lng': 112.473231}",洛阳陈涛乒乓球俱乐部,河南省,,,870658347387db67f4b916c8,34.662949,112.473231,教育培训,,
160,160,160,偃师市商都夜市,偃师市,洛阳市,1,"{'tag': '运动健身;体育场馆', 'type': 'life', 'detail_url': 'http://api.map.baidu.com/place/detail?uid=0aa884ed2d48cd7e89f15d94&output=html&source=placeapi_v2', 'image_num': '1', 'children': []}","{'lat': 34.630802, 'lng': 112.734821}",偃师市佳一羽毛球俱乐部商都夜市球馆,河南省,,,0aa884ed2d48cd7e89f15d94,34.630802,112.734821,运动健身;体育场馆,,
161,161,161,纱厂东路4号第1幢附近,西工区,洛阳市,1,"{'tag': '出入口;门', 'type': 'life', 'detail_url': 'http://api.map.baidu.com/place/detail?uid=681cbe5be56b0cd0081cc714&output=html&source=placeapi_v2', 'image_num': '1', 'children': []}","{'lat': 34.685556, 'lng': 112.443089}",0379羽毛球俱乐部-东北门,河南省,681cbe5be56b0cd0081cc714,,681cbe5be56b0cd0081cc714,34.685556,112.443089,出入口;门,,
162,162,162,黄河路114号,涧西区,洛阳市,1,"{'tag': '出入口;门', 'type': 'life', 'detail_url': 'http://api.map.baidu.com/place/detail?uid=ed61b8f552d853ac9d95dee4&output=html&source=placeapi_v2', 'image_num': '1', 'children': []}","{'lat': 34.661633, 'lng': 112.42249}",洛阳新动力羽毛球俱乐部-东北门,河南省,ed61b8f552d853ac9d95dee4,,ed61b8f552d853ac9d95dee4,34.661633,112.42249,出入口;门,,
163,163,163,关林街道牡丹大道广利街交叉口向东一百五十米路南,洛龙区,洛阳市,1,"{'tag': '运动健身;体育场馆', 'type': 'life', 'detail_url': 'http://api.map.baidu.com/place/detail?uid=5ab3f8d01a667d02d92f28c3&output=html&source=placeapi_v2', 'image_num': '1', 'children': []}","{'lat': 34.61713, 'lng': 112.473437}",红双喜乒乓球俱乐部,河南省,,,5ab3f8d01a667d02d92f28c3,34.61713,112.473437,运动健身;体育场馆,,
164,164,164,河南省洛阳市洛龙区S319(洛宜公路),洛龙区,洛阳市,1,"{'tag': '运动健身;体育场馆', 'type': 'life', 'detail_url': 'http://api.map.baidu.com/place/detail?uid=f46bd14fa5701566e215f955&output=html&source=placeapi_v2', 'image_num': '2', 'children': []}","{'lat': 34.664203, 'lng': 112.473752}",Garden Court花园球馆(花卉市场店),河南省,,,f46bd14fa5701566e215f955,34.664203,112.473752,运动健身;体育场馆,,
165,165,165,河南省洛阳市西工区汉宫路5号乾元木材公司院内,西工区,洛阳市,1,"{'tag': '运动健身;体育场馆', 'type': 'life', 'detail_url': 'http://api.map.baidu.com/place/detail?uid=d68f98c111a065154054d73d&output=html&source=placeapi_v2', 'overall_rating': '4.0', 'image_num': '4', 'comment_num': '3', 'children': []}","{'lat': 34.695521, 'lng': 112.426276}",7号球馆,河南省,,"(0379)61129817,15138798770",d68f98c111a065154054d73d,34.695521,112.426276,运动健身;体育场馆,,
166,166,166,河南省洛阳市西工区纱厂北路4号纱厂北路丹尼斯向北100米(食品城),西工区,洛阳市,1,"{'tag': '运动健身;体育场馆', 'type': 'life', 'detail_url': 'http://api.map.baidu.com/place/detail?uid=e7841c706f04b930c51e5128&output=html&source=placeapi_v2', 'overall_rating': '5.0', 'image_num': '10', 'comment_num': '3', 'children': []}","{'lat': 34.691321, 'lng': 112.435232}",袋鼠篮球公园,河南省,,18103796907,e7841c706f04b930c51e5128,34.691321,112.435232,运动健身;体育场馆,,
167,167,167,健康路与航空路交叉口南50米,西工区,洛阳市,1,"{'tag': '运动健身;体育场馆', 'type': 'life', 'detail_url': 'http://api.map.baidu.com/place/detail?uid=7b54f15737294c0481288a5a&output=html&source=placeapi_v2', 'image_num': '1', 'children': []}","{'lat': 34.671668, 'lng': 112.447659}",篮球馆,河南省,,,7b54f15737294c0481288a5a,34.671668,112.447659,运动健身;体育场馆,,
168,168,168,丽新路青少年宫,涧西区,洛阳市,1,"{'tag': '运动健身;体育场馆', 'type': 'life', 'detail_url': 'http://api.map.baidu.com/place/detail?uid=cead7693174b5420d42ce2b1&output=html&source=placeapi_v2', 'image_num': '1', 'children': []}","{'lat': 34.661976, 'lng': 112.416052}",洛阳市青少年宫-羽毛球馆,河南省,cead7693174b5420d42ce2b1,,cead7693174b5420d42ce2b1,34.661976,112.416052,运动健身;体育场馆,,
169,169,169,河南省洛阳市涧西区陇北二路19号,涧西区,洛阳市,1,"{'tag': '运动健身;体育场馆', 'type': 'life', 'detail_url': 'http://api.map.baidu.com/place/detail?uid=2ed0096b93a3a59008f5eb1e&output=html&source=placeapi_v2', 'image_num': '3', 'children': []}","{'lat': 34.672487, 'lng': 112.387299}",乒乓球俱乐部,河南省,2ed0096b93a3a59008f5eb1e,,2ed0096b93a3a59008f5eb1e,34.672487,112.387299,运动健身;体育场馆,,
170,170,170,河南省洛阳市西工区陵园路七号院,西工区,洛阳市,1,"{'tag': '运动健身;体育场馆', 'type': 'life', 'detail_url': 'http://api.map.baidu.com/place/detail?uid=7e8f85c13309ae7f21f017e7&output=html&source=placeapi_v2', 'overall_rating': '0.0', 'image_num': '1', 'children': []}","{'lat': 34.698192, 'lng': 112.43865}",海川羽毛球馆,河南省,,(0379)60280091,7e8f85c13309ae7f21f017e7,34.698192,112.43865,运动健身;体育场馆,,
171,171,171,安乐镇茹刘线,洛龙区,洛阳市,1,"{'tag': '运动健身;体育场馆', 'type': 'life', 'detail_url': 'http://api.map.baidu.com/place/detail?uid=04465935c028525eae080f56&output=html&source=placeapi_v2', 'overall_rating': '4.0', 'image_num': '7', 'comment_num': '4', 'children': []}","{'lat': 34.652203, 'lng': 112.505729}",洛阳篮球公园,河南省,04465935c028525eae080f56,13783171016,04465935c028525eae080f56,34.652203,112.505729,运动健身;体育场馆,,
172,172,172,黄河路114号,涧西区,洛阳市,1,"{'tag': '运动健身;体育场馆', 'type': 'life', 'detail_url': 'http://api.map.baidu.com/place/detail?uid=ab39b983107645acca213d53&output=html&source=placeapi_v2', 'image_num': '1', 'children': []}","{'lat': 34.661696, 'lng': 112.422381}",洛阳新动力羽毛球俱乐部,河南省,,,ab39b983107645acca213d53,34.661696,112.422381,运动健身;体育场馆,,
173,173,173,航空路和青年路的交叉口附近,西工区,洛阳市,1,"{'tag': '运动健身;体育场馆', 'type': 'life', 'detail_url': 'http://api.map.baidu.com/place/detail?uid=00d3f0dfa5d5fa2f210220c7&output=html&source=placeapi_v2', 'image_num': '1', 'children': []}","{'lat': 34.671641, 'lng': 112.447825}",博德篮球训练营,河南省,,13343884989,00d3f0dfa5d5fa2f210220c7,34.671641,112.447825,运动健身;体育场馆,,
174,174,174,中州中路319金水湾大酒店,西工区,洛阳市,1,"{'tag': '运动健身;体育场馆', 'navi_location': {'lng': 112.44738895324, 'lat': 34.677893319671}, 'type': 'life', 'detail_url': 'http://api.map.baidu.com/place/detail?uid=9fe3b0e265c6e07943ab9a8b&output=html&source=placeapi_v2', 'overall_rating': '0.0', 'image_num': '1', 'comment_num': '1', 'children': []}","{'lat': 34.677683, 'lng': 112.447468}",金水湾大酒店-乒乓球,河南省,9fe3b0e265c6e07943ab9a8b,,9fe3b0e265c6e07943ab9a8b,34.677683,112.447468,运动健身;体育场馆,,
175,175,175,中州西路与涧河街交叉口东北150米,西工区,洛阳市,1,"{'tag': '运动健身;体育场馆', 'type': 'life', 'detail_url': 'http://api.map.baidu.com/place/detail?uid=37c7e6323b7fe03fd8131827&output=html&source=placeapi_v2', 'image_num': '1', 'children': []}","{'lat': 34.670268, 'lng': 112.426085}",篮球场,河南省,,,37c7e6323b7fe03fd8131827,34.670268,112.426085,运动健身;体育场馆,,
176,176,176,河南省洛阳市西工区春都路126,西工区,洛阳市,1,"{'tag': '运动健身;体育场馆', 'type': 'life', 'detail_url': 'http://api.map.baidu.com/place/detail?uid=157539f6ab4352ecd13ce39b&output=html&source=placeapi_v2', 'overall_rating': '3.0', 'image_num': '1', 'children': []}","{'lat': 34.694893, 'lng': 112.452021}",乾记羽毛球馆,河南省,,13937907464,157539f6ab4352ecd13ce39b,34.694893,112.452021,运动健身;体育场馆,,
177,177,177,机场西路九号洛阳新艺学院附近,孟津县,洛阳市,1,"{'tag': '运动健身;体育场馆', 'type': 'life', 'detail_url': 'http://api.map.baidu.com/place/detail?uid=5b29714a99134ad405026f98&output=html&source=placeapi_v2', 'image_num': '1', 'children': []}","{'lat': 34.736794, 'lng': 112.385593}",洛阳空港产业集聚区乒乓球俱乐部,河南省,5b29714a99134ad405026f98,,5b29714a99134ad405026f98,34.736794,112.385593,运动健身;体育场馆,,
178,178,178,中州东路青年宫4楼,老城区,洛阳市,1,"{'tag': '运动健身;体育场馆', 'navi_location': {'lng': 112.48703522676, 'lat': 34.691895884976}, 'type': 'life', 'detail_url': 'http://api.map.baidu.com/place/detail?uid=15465f0b95ca22ac774ff146&output=html&source=placeapi_v2', 'overall_rating': '5.0', 'image_num': '5', 'comment_num': '2', 'children': []}","{'lat': 34.691855, 'lng': 112.48738}",乐旋乒乓球俱乐部,河南省,15465f0b95ca22ac774ff146,18939004129,15465f0b95ca22ac774ff146,34.691855,112.48738,运动健身;体育场馆,,
179,179,179,中州东路310号云天宾馆,老城区,洛阳市,1,"{'tag': '运动健身;体育场馆', 'navi_location': {'lng': 112.48338105559, 'lat': 34.689478784986}, 'type': 'life', 'detail_url': 'http://api.map.baidu.com/place/detail?uid=f5f1d8f5c7e3a70f91114c72&output=html&source=placeapi_v2', 'overall_rating': '0.0', 'image_num': '2', 'comment_num': '1', 'children': []}","{'lat': 34.689634, 'lng': 112.48335}",云天宾馆-乒乓球厅,河南省,f5f1d8f5c7e3a70f91114c72,(0379)65277588,f5f1d8f5c7e3a70f91114c72,34.689634,112.48335,运动健身;体育场馆,,
180,180,180,洛阳市孟津县洛麻线,孟津县,洛阳市,1,"{'tag': '运动健身;体育场馆', 'navi_location': {'lng': 112.3984291003, 'lat': 34.737165060898}, 'type': 'life', 'detail_url': 'http://api.map.baidu.com/place/detail?uid=f8ea7498037ad7a0c8e33ca8&output=html&source=placeapi_v2', 'image_num': '1', 'children': []}","{'lat': 34.737536, 'lng': 112.397896}",洛阳职业技术学院-篮球场,河南省,f8ea7498037ad7a0c8e33ca8,,f8ea7498037ad7a0c8e33ca8,34.737536,112.397896,运动健身;体育场馆,,
181,181,181,安乐街道洛阳桥南向南200米龙安宾馆,洛龙区,洛阳市,1,"{'tag': '教育培训', 'type': 'education', 'detail_url': 'http://api.map.baidu.com/place/detail?uid=870658347387db67f4b916c8&output=html&source=placeapi_v2', 'children': []}","{'lat': 34.662949, 'lng': 112.473231}",洛阳陈涛乒乓球俱乐部,河南省,,,870658347387db67f4b916c8,34.662949,112.473231,教育培训,,
182,182,182,纱厂东路4号第1幢附近,西工区,洛阳市,1,"{'tag': '出入口;门', 'type': 'life', 'detail_url': 'http://api.map.baidu.com/place/detail?uid=681cbe5be56b0cd0081cc714&output=html&source=placeapi_v2', 'image_num': '1', 'children': []}","{'lat': 34.685556, 'lng': 112.443089}",0379羽毛球俱乐部-东北门,河南省,681cbe5be56b0cd0081cc714,,681cbe5be56b0cd0081cc714,34.685556,112.443089,出入口;门,,
183,183,183,小浪底大道540,孟津县,洛阳市,1,"{'tag': '运动健身;体育场馆', 'navi_location': {'lng': 112.4476845775, 'lat': 34.821717794764}, 'type': 'life', 'detail_url': 'http://api.map.baidu.com/place/detail?uid=715e2b6cc3d4758a17948e74&output=html&source=placeapi_v2', 'image_num': '1', 'children': []}","{'lat': 34.821721, 'lng': 112.44787}",金誉乒乓球俱乐部,河南省,,13323881185,715e2b6cc3d4758a17948e74,34.821721,112.44787,运动健身;体育场馆,,
184,184,184,黄河路114号,涧西区,洛阳市,1,"{'tag': '出入口;门', 'type': 'life', 'detail_url': 'http://api.map.baidu.com/place/detail?uid=ed61b8f552d853ac9d95dee4&output=html&source=placeapi_v2', 'image_num': '1', 'children': []}","{'lat': 34.661633, 'lng': 112.42249}",洛阳新动力羽毛球俱乐部-东北门,河南省,ed61b8f552d853ac9d95dee4,,ed61b8f552d853ac9d95dee4,34.661633,112.42249,出入口;门,,
185,185,185,河南省洛阳市西工区汉宫路5号乾元木材公司院内,西工区,洛阳市,1,"{'tag': '运动健身;体育场馆', 'type': 'life', 'detail_url': 'http://api.map.baidu.com/place/detail?uid=d68f98c111a065154054d73d&output=html&source=placeapi_v2', 'overall_rating': '4.0', 'image_num': '4', 'comment_num': '3', 'children': []}","{'lat': 34.695521, 'lng': 112.426276}",7号球馆,河南省,,"(0379)61129817,15138798770",d68f98c111a065154054d73d,34.695521,112.426276,运动健身;体育场馆,,
186,186,186,河南省洛阳市西工区纱厂北路4号纱厂北路丹尼斯向北100米(食品城),西工区,洛阳市,1,"{'tag': '运动健身;体育场馆', 'type': 'life', 'detail_url': 'http://api.map.baidu.com/place/detail?uid=e7841c706f04b930c51e5128&output=html&source=placeapi_v2', 'overall_rating': '5.0', 'image_num': '10', 'comment_num': '3', 'children': []}","{'lat': 34.691321, 'lng': 112.435232}",袋鼠篮球公园,河南省,,18103796907,e7841c706f04b930c51e5128,34.691321,112.435232,运动健身;体育场馆,,
187,187,187,河南省洛阳市西工区陵园路七号院,西工区,洛阳市,1,"{'tag': '运动健身;体育场馆', 'type': 'life', 'detail_url': 'http://api.map.baidu.com/place/detail?uid=7e8f85c13309ae7f21f017e7&output=html&source=placeapi_v2', 'overall_rating': '0.0', 'image_num': '1', 'children': []}","{'lat': 34.698192, 'lng': 112.43865}",海川羽毛球馆,河南省,,(0379)60280091,7e8f85c13309ae7f21f017e7,34.698192,112.43865,运动健身;体育场馆,,
188,188,188,河南省洛阳市西工区春都路126,西工区,洛阳市,1,"{'tag': '运动健身;体育场馆', 'type': 'life', 'detail_url': 'http://api.map.baidu.com/place/detail?uid=157539f6ab4352ecd13ce39b&output=html&source=placeapi_v2', 'overall_rating': '3.0', 'image_num': '1', 'children': []}","{'lat': 34.694893, 'lng': 112.452021}",乾记羽毛球馆,河南省,,13937907464,157539f6ab4352ecd13ce39b,34.694893,112.452021,运动健身;体育场馆,,
189,189,189,机场西路九号洛阳新艺学院附近,孟津县,洛阳市,1,"{'tag': '运动健身;体育场馆', 'type': 'life', 'detail_url': 'http://api.map.baidu.com/place/detail?uid=5b29714a99134ad405026f98&output=html&source=placeapi_v2', 'image_num': '1', 'children': []}","{'lat': 34.736794, 'lng': 112.385593}",洛阳空港产业集聚区乒乓球俱乐部,河南省,5b29714a99134ad405026f98,,5b29714a99134ad405026f98,34.736794,112.385593,运动健身;体育场馆,,
190,190,190,中州东路青年宫4楼,老城区,洛阳市,1,"{'tag': '运动健身;体育场馆', 'navi_location': {'lng': 112.48703522676, 'lat': 34.691895884976}, 'type': 'life', 'detail_url': 'http://api.map.baidu.com/place/detail?uid=15465f0b95ca22ac774ff146&output=html&source=placeapi_v2', 'overall_rating': '5.0', 'image_num': '5', 'comment_num': '2', 'children': []}","{'lat': 34.691855, 'lng': 112.48738}",乐旋乒乓球俱乐部,河南省,15465f0b95ca22ac774ff146,18939004129,15465f0b95ca22ac774ff146,34.691855,112.48738,运动健身;体育场馆,,
191,191,191,中州东路310号云天宾馆,老城区,洛阳市,1,"{'tag': '运动健身;体育场馆', 'navi_location': {'lng': 112.48338105559, 'lat': 34.689478784986}, 'type': 'life', 'detail_url': 'http://api.map.baidu.com/place/detail?uid=f5f1d8f5c7e3a70f91114c72&output=html&source=placeapi_v2', 'overall_rating': '0.0', 'image_num': '2', 'comment_num': '1', 'children': []}","{'lat': 34.689634, 'lng': 112.48335}",云天宾馆-乒乓球厅,河南省,f5f1d8f5c7e3a70f91114c72,(0379)65277588,f5f1d8f5c7e3a70f91114c72,34.689634,112.48335,运动健身;体育场馆,,
192,192,192,洛阳市孟津县洛麻线,孟津县,洛阳市,1,"{'tag': '运动健身;体育场馆', 'navi_location': {'lng': 112.3984291003, 'lat': 34.737165060898}, 'type': 'life', 'detail_url': 'http://api.map.baidu.com/place/detail?uid=f8ea7498037ad7a0c8e33ca8&output=html&source=placeapi_v2', 'image_num': '1', 'children': []}","{'lat': 34.737536, 'lng': 112.397896}",洛阳职业技术学院-篮球场,河南省,f8ea7498037ad7a0c8e33ca8,,f8ea7498037ad7a0c8e33ca8,34.737536,112.397896,运动健身;体育场馆,,
193,193,193,纱厂东路4号第1幢附近,西工区,洛阳市,1,"{'tag': '出入口;门', 'type': 'life', 'detail_url': 'http://api.map.baidu.com/place/detail?uid=681cbe5be56b0cd0081cc714&output=html&source=placeapi_v2', 'image_num': '1', 'children': []}","{'lat': 34.685556, 'lng': 112.443089}",0379羽毛球俱乐部-东北门,河南省,681cbe5be56b0cd0081cc714,,681cbe5be56b0cd0081cc714,34.685556,112.443089,出入口;门,,
194,194,194,小浪底大道540,孟津县,洛阳市,1,"{'tag': '运动健身;体育场馆', 'navi_location': {'lng': 112.4476845775, 'lat': 34.821717794764}, 'type': 'life', 'detail_url': 'http://api.map.baidu.com/place/detail?uid=715e2b6cc3d4758a17948e74&output=html&source=placeapi_v2', 'image_num': '1', 'children': []}","{'lat': 34.821721, 'lng': 112.44787}",金誉乒乓球俱乐部,河南省,,13323881185,715e2b6cc3d4758a17948e74,34.821721,112.44787,运动健身;体育场馆,,
195,195,195,中原路与启明路交叉口西南150米石化体育馆,吉利区,洛阳市,1,"{'tag': '运动健身;体育场馆', 'type': 'life', 'detail_url': 'http://api.map.baidu.com/place/detail?uid=fd5f9b92e08aa17b71455b1e&output=html&source=placeapi_v2', 'image_num': '3', 'children': []}","{'lat': 34.905555, 'lng': 112.611187}",石化羽毛球馆,河南省,,,fd5f9b92e08aa17b71455b1e,34.905555,112.611187,运动健身;体育场馆,,
196,196,196,机场西路九号洛阳新艺学院附近,孟津县,洛阳市,1,"{'tag': '运动健身;体育场馆', 'type': 'life', 'detail_url': 'http://api.map.baidu.com/place/detail?uid=5b29714a99134ad405026f98&output=html&source=placeapi_v2', 'image_num': '1', 'children': []}","{'lat': 34.736794, 'lng': 112.385593}",洛阳空港产业集聚区乒乓球俱乐部,河南省,5b29714a99134ad405026f98,,5b29714a99134ad405026f98,34.736794,112.385593,运动健身;体育场馆,,
197,197,197,洛阳市孟津县洛麻线,孟津县,洛阳市,1,"{'tag': '运动健身;体育场馆', 'navi_location': {'lng': 112.3984291003, 'lat': 34.737165060898}, 'type': 'life', 'detail_url': 'http://api.map.baidu.com/place/detail?uid=f8ea7498037ad7a0c8e33ca8&output=html&source=placeapi_v2', 'image_num': '1', 'children': []}","{'lat': 34.737536, 'lng': 112.397896}",洛阳职业技术学院-篮球场,河南省,f8ea7498037ad7a0c8e33ca8,,f8ea7498037ad7a0c8e33ca8,34.737536,112.397896,运动健身;体育场馆,,
198,198,198,小浪底大道540,孟津县,洛阳市,1,"{'tag': '运动健身;体育场馆', 'navi_location': {'lng': 112.4476845775, 'lat': 34.821717794764}, 'type': 'life', 'detail_url': 'http://api.map.baidu.com/place/detail?uid=715e2b6cc3d4758a17948e74&output=html&source=placeapi_v2', 'image_num': '1', 'children': []}","{'lat': 34.821721, 'lng': 112.44787}",金誉乒乓球俱乐部,河南省,,13323881185,715e2b6cc3d4758a17948e74,34.821721,112.44787,运动健身;体育场馆,,
199,199,199,河南省洛阳市洛龙区S319(洛宜公路),洛龙区,洛阳市,1,"{'tag': '运动健身;体育场馆', 'type': 'life', 'detail_url': 'http://api.map.baidu.com/place/detail?uid=f46bd14fa5701566e215f955&output=html&source=placeapi_v2', 'image_num': '2', 'children': []}","{'lat': 34.664203, 'lng': 112.473752}",Garden Court花园球馆(花卉市场店),河南省,,,f46bd14fa5701566e215f955,34.664203,112.473752,运动健身;体育场馆,,
200,200,200,安乐镇茹刘线,洛龙区,洛阳市,1,"{'tag': '运动健身;体育场馆', 'type': 'life', 'detail_url': 'http://api.map.baidu.com/place/detail?uid=04465935c028525eae080f56&output=html&source=placeapi_v2', 'overall_rating': '4.0', 'image_num': '7', 'comment_num': '4', 'children': []}","{'lat': 34.652203, 'lng': 112.505729}",洛阳篮球公园,河南省,04465935c028525eae080f56,13783171016,04465935c028525eae080f56,34.652203,112.505729,运动健身;体育场馆,,
201,201,201,河南省洛阳市西工区春都路126,西工区,洛阳市,1,"{'tag': '运动健身;体育场馆', 'type': 'life', 'detail_url': 'http://api.map.baidu.com/place/detail?uid=157539f6ab4352ecd13ce39b&output=html&source=placeapi_v2', 'overall_rating': '3.0', 'image_num': '1', 'children': []}","{'lat': 34.694893, 'lng': 112.452021}",乾记羽毛球馆,河南省,,13937907464,157539f6ab4352ecd13ce39b,34.694893,112.452021,运动健身;体育场馆,,
202,202,202,中州东路青年宫4楼,老城区,洛阳市,1,"{'tag': '运动健身;体育场馆', 'navi_location': {'lng': 112.48703522676, 'lat': 34.691895884976}, 'type': 'life', 'detail_url': 'http://api.map.baidu.com/place/detail?uid=15465f0b95ca22ac774ff146&output=html&source=placeapi_v2', 'overall_rating': '5.0', 'image_num': '5', 'comment_num': '2', 'children': []}","{'lat': 34.691855, 'lng': 112.48738}",乐旋乒乓球俱乐部,河南省,15465f0b95ca22ac774ff146,18939004129,15465f0b95ca22ac774ff146,34.691855,112.48738,运动健身;体育场馆,,
203,203,203,中州东路310号云天宾馆,老城区,洛阳市,1,"{'tag': '运动健身;体育场馆', 'navi_location': {'lng': 112.48338105559, 'lat': 34.689478784986}, 'type': 'life', 'detail_url': 'http://api.map.baidu.com/place/detail?uid=f5f1d8f5c7e3a70f91114c72&output=html&source=placeapi_v2', 'overall_rating': '0.0', 'image_num': '2', 'comment_num': '1', 'children': []}","{'lat': 34.689634, 'lng': 112.48335}",云天宾馆-乒乓球厅,河南省,f5f1d8f5c7e3a70f91114c72,(0379)65277588,f5f1d8f5c7e3a70f91114c72,34.689634,112.48335,运动健身;体育场馆,,
204,204,204,河南省洛阳市偃师市S314,偃师市,洛阳市,1,"{'tag': '运动健身;体育场馆', 'type': 'life', 'detail_url': 'http://api.map.baidu.com/place/detail?uid=24fcb07a26e8aef68bf15d41&output=html&source=placeapi_v2', 'image_num': '1', 'children': []}","{'lat': 34.749475, 'lng': 112.801975}",佳一羽毛球俱乐部,河南省,,,24fcb07a26e8aef68bf15d41,34.749475,112.801975,运动健身;体育场馆,,
205,205,205,民主路与迎宾路交叉口东100米,偃师市,洛阳市,1,"{'tag': '运动健身;体育场馆', 'type': 'life', 'detail_url': 'http://api.map.baidu.com/place/detail?uid=dedac79370efb9ac15a19097&output=html&source=placeapi_v2', 'image_num': '1', 'children': []}","{'lat': 34.733295, 'lng': 112.801764}",迎宾乒乓球俱乐部,河南省,,,dedac79370efb9ac15a19097,34.733295,112.801764,运动健身;体育场馆,,
206,206,206,开元大道239号钼都利豪国际饭店19层,洛龙区,洛阳市,1,"{'tag': '运动健身;体育场馆', 'navi_location': {'lng': 112.45219416099, 'lat': 34.622932804797}, 'type': 'life', 'detail_url': 'http://api.map.baidu.com/place/detail?uid=1257f8ad389e3bedd0ff2331&output=html&source=placeapi_v2', 'overall_rating': '0.0', 'image_num': '1', 'children': []}","{'lat': 34.622723, 'lng': 112.452235}",钼都利豪国际饭店-乒乓球室,河南省,1257f8ad389e3bedd0ff2331,(0379)65979999,1257f8ad389e3bedd0ff2331,34.622723,112.452235,运动健身;体育场馆,,
207,207,207,安乐街道洛阳桥南向南200米龙安宾馆,洛龙区,洛阳市,1,"{'tag': '教育培训', 'type': 'education', 'detail_url': 'http://api.map.baidu.com/place/detail?uid=870658347387db67f4b916c8&output=html&source=placeapi_v2', 'children': []}","{'lat': 34.662949, 'lng': 112.473231}",洛阳陈涛乒乓球俱乐部,河南省,,,870658347387db67f4b916c8,34.662949,112.473231,教育培训,,
208,208,208,河南省洛阳市偃师市杜甫大道启智艺术幼儿园附近,偃师市,洛阳市,1,"{'tag': '运动健身;体育场馆', 'type': 'life', 'detail_url': 'http://api.map.baidu.com/place/detail?uid=5f7c0c5853adc7de774ff12c&output=html&source=placeapi_v2', 'image_num': '1', 'children': []}","{'lat': 34.73213, 'lng': 112.752915}",经典球俱乐部,河南省,,,5f7c0c5853adc7de774ff12c,34.73213,112.752915,运动健身;体育场馆,,
209,209,209,偃师市商都夜市,偃师市,洛阳市,1,"{'tag': '运动健身;体育场馆', 'type': 'life', 'detail_url': 'http://api.map.baidu.com/place/detail?uid=0aa884ed2d48cd7e89f15d94&output=html&source=placeapi_v2', 'image_num': '1', 'children': []}","{'lat': 34.630802, 'lng': 112.734821}",偃师市佳一羽毛球俱乐部商都夜市球馆,河南省,,,0aa884ed2d48cd7e89f15d94,34.630802,112.734821,运动健身;体育场馆,,
210,210,210,关林街道牡丹大道广利街交叉口向东一百五十米路南,洛龙区,洛阳市,1,"{'tag': '运动健身;体育场馆', 'type': 'life', 'detail_url': 'http://api.map.baidu.com/place/detail?uid=5ab3f8d01a667d02d92f28c3&output=html&source=placeapi_v2', 'image_num': '1', 'children': []}","{'lat': 34.61713, 'lng': 112.473437}",红双喜乒乓球俱乐部,河南省,,,5ab3f8d01a667d02d92f28c3,34.61713,112.473437,运动健身;体育场馆,,
211,211,211,河南省洛阳市洛龙区S319(洛宜公路),洛龙区,洛阳市,1,"{'tag': '运动健身;体育场馆', 'type': 'life', 'detail_url': 'http://api.map.baidu.com/place/detail?uid=f46bd14fa5701566e215f955&output=html&source=placeapi_v2', 'image_num': '2', 'children': []}","{'lat': 34.664203, 'lng': 112.473752}",Garden Court花园球馆(花卉市场店),河南省,,,f46bd14fa5701566e215f955,34.664203,112.473752,运动健身;体育场馆,,
212,212,212,安乐镇茹刘线,洛龙区,洛阳市,1,"{'tag': '运动健身;体育场馆', 'type': 'life', 'detail_url': 'http://api.map.baidu.com/place/detail?uid=04465935c028525eae080f56&output=html&source=placeapi_v2', 'overall_rating': '4.0', 'image_num': '7', 'comment_num': '4', 'children': []}","{'lat': 34.652203, 'lng': 112.505729}",洛阳篮球公园,河南省,04465935c028525eae080f56,13783171016,04465935c028525eae080f56,34.652203,112.505729,运动健身;体育场馆,,
213,213,213,河南省洛阳市西工区春都路126,西工区,洛阳市,1,"{'tag': '运动健身;体育场馆', 'type': 'life', 'detail_url': 'http://api.map.baidu.com/place/detail?uid=157539f6ab4352ecd13ce39b&output=html&source=placeapi_v2', 'overall_rating': '3.0', 'image_num': '1', 'children': []}","{'lat': 34.694893, 'lng': 112.452021}",乾记羽毛球馆,河南省,,13937907464,157539f6ab4352ecd13ce39b,34.694893,112.452021,运动健身;体育场馆,,
214,214,214,中州东路青年宫4楼,老城区,洛阳市,1,"{'tag': '运动健身;体育场馆', 'navi_location': {'lng': 112.48703522676, 'lat': 34.691895884976}, 'type': 'life', 'detail_url': 'http://api.map.baidu.com/place/detail?uid=15465f0b95ca22ac774ff146&output=html&source=placeapi_v2', 'overall_rating': '5.0', 'image_num': '5', 'comment_num': '2', 'children': []}","{'lat': 34.691855, 'lng': 112.48738}",乐旋乒乓球俱乐部,河南省,15465f0b95ca22ac774ff146,18939004129,15465f0b95ca22ac774ff146,34.691855,112.48738,运动健身;体育场馆,,
215,215,215,中州东路310号云天宾馆,老城区,洛阳市,1,"{'tag': '运动健身;体育场馆', 'navi_location': {'lng': 112.48338105559, 'lat': 34.689478784986}, 'type': 'life', 'detail_url': 'http://api.map.baidu.com/place/detail?uid=f5f1d8f5c7e3a70f91114c72&output=html&source=placeapi_v2', 'overall_rating': '0.0', 'image_num': '2', 'comment_num': '1', 'children': []}","{'lat': 34.689634, 'lng': 112.48335}",云天宾馆-乒乓球厅,河南省,f5f1d8f5c7e3a70f91114c72,(0379)65277588,f5f1d8f5c7e3a70f91114c72,34.689634,112.48335,运动健身;体育场馆,,
216,216,216,河南省洛阳市偃师市S314,偃师市,洛阳市,1,"{'tag': '运动健身;体育场馆', 'type': 'life', 'detail_url': 'http://api.map.baidu.com/place/detail?uid=24fcb07a26e8aef68bf15d41&output=html&source=placeapi_v2', 'image_num': '1', 'children': []}","{'lat': 34.749475, 'lng': 112.801975}",佳一羽毛球俱乐部,河南省,,,24fcb07a26e8aef68bf15d41,34.749475,112.801975,运动健身;体育场馆,,
217,217,217,民主路与迎宾路交叉口东100米,偃师市,洛阳市,1,"{'tag': '运动健身;体育场馆', 'type': 'life', 'detail_url': 'http://api.map.baidu.com/place/detail?uid=dedac79370efb9ac15a19097&output=html&source=placeapi_v2', 'image_num': '1', 'children': []}","{'lat': 34.733295, 'lng': 112.801764}",迎宾乒乓球俱乐部,河南省,,,dedac79370efb9ac15a19097,34.733295,112.801764,运动健身;体育场馆,,
218,218,218,开元大道239号钼都利豪国际饭店19层,洛龙区,洛阳市,1,"{'tag': '运动健身;体育场馆', 'navi_location': {'lng': 112.45219416099, 'lat': 34.622932804797}, 'type': 'life', 'detail_url': 'http://api.map.baidu.com/place/detail?uid=1257f8ad389e3bedd0ff2331&output=html&source=placeapi_v2', 'overall_rating': '0.0', 'image_num': '1', 'children': []}","{'lat': 34.622723, 'lng': 112.452235}",钼都利豪国际饭店-乒乓球室,河南省,1257f8ad389e3bedd0ff2331,(0379)65979999,1257f8ad389e3bedd0ff2331,34.622723,112.452235,运动健身;体育场馆,,
219,219,219,安乐街道洛阳桥南向南200米龙安宾馆,洛龙区,洛阳市,1,"{'tag': '教育培训', 'type': 'education', 'detail_url': 'http://api.map.baidu.com/place/detail?uid=870658347387db67f4b916c8&output=html&source=placeapi_v2', 'children': []}","{'lat': 34.662949, 'lng': 112.473231}",洛阳陈涛乒乓球俱乐部,河南省,,,870658347387db67f4b916c8,34.662949,112.473231,教育培训,,
220,220,220,河南省洛阳市偃师市杜甫大道启智艺术幼儿园附近,偃师市,洛阳市,1,"{'tag': '运动健身;体育场馆', 'type': 'life', 'detail_url': 'http://api.map.baidu.com/place/detail?uid=5f7c0c5853adc7de774ff12c&output=html&source=placeapi_v2', 'image_num': '1', 'children': []}","{'lat': 34.73213, 'lng': 112.752915}",经典球俱乐部,河南省,,,5f7c0c5853adc7de774ff12c,34.73213,112.752915,运动健身;体育场馆,,
221,221,221,偃师市商都夜市,偃师市,洛阳市,1,"{'tag': '运动健身;体育场馆', 'type': 'life', 'detail_url': 'http://api.map.baidu.com/place/detail?uid=0aa884ed2d48cd7e89f15d94&output=html&source=placeapi_v2', 'image_num': '1', 'children': []}","{'lat': 34.630802, 'lng': 112.734821}",偃师市佳一羽毛球俱乐部商都夜市球馆,河南省,,,0aa884ed2d48cd7e89f15d94,34.630802,112.734821,运动健身;体育场馆,,
222,222,222,关林街道牡丹大道广利街交叉口向东一百五十米路南,洛龙区,洛阳市,1,"{'tag': '运动健身;体育场馆', 'type': 'life', 'detail_url': 'http://api.map.baidu.com/place/detail?uid=5ab3f8d01a667d02d92f28c3&output=html&source=placeapi_v2', 'image_num': '1', 'children': []}","{'lat': 34.61713, 'lng': 112.473437}",红双喜乒乓球俱乐部,河南省,,,5ab3f8d01a667d02d92f28c3,34.61713,112.473437,运动健身;体育场馆,,
223,223,223,河南省洛阳市洛龙区S319(洛宜公路),洛龙区,洛阳市,1,"{'tag': '运动健身;体育场馆', 'type': 'life', 'detail_url': 'http://api.map.baidu.com/place/detail?uid=f46bd14fa5701566e215f955&output=html&source=placeapi_v2', 'image_num': '2', 'children': []}","{'lat': 34.664203, 'lng': 112.473752}",Garden Court花园球馆(花卉市场店),河南省,,,f46bd14fa5701566e215f955,34.664203,112.473752,运动健身;体育场馆,,
224,224,224,安乐镇茹刘线,洛龙区,洛阳市,1,"{'tag': '运动健身;体育场馆', 'type': 'life', 'detail_url': 'http://api.map.baidu.com/place/detail?uid=04465935c028525eae080f56&output=html&source=placeapi_v2', 'overall_rating': '4.0', 'image_num': '7', 'comment_num': '4', 'children': []}","{'lat': 34.652203, 'lng': 112.505729}",洛阳篮球公园,河南省,04465935c028525eae080f56,13783171016,04465935c028525eae080f56,34.652203,112.505729,运动健身;体育场馆,,
225,225,225,河南省洛阳市西工区春都路126,西工区,洛阳市,1,"{'tag': '运动健身;体育场馆', 'type': 'life', 'detail_url': 'http://api.map.baidu.com/place/detail?uid=157539f6ab4352ecd13ce39b&output=html&source=placeapi_v2', 'overall_rating': '3.0', 'image_num': '1', 'children': []}","{'lat': 34.694893, 'lng': 112.452021}",乾记羽毛球馆,河南省,,13937907464,157539f6ab4352ecd13ce39b,34.694893,112.452021,运动健身;体育场馆,,
226,226,226,中州东路青年宫4楼,老城区,洛阳市,1,"{'tag': '运动健身;体育场馆', 'navi_location': {'lng': 112.48703522676, 'lat': 34.691895884976}, 'type': 'life', 'detail_url': 'http://api.map.baidu.com/place/detail?uid=15465f0b95ca22ac774ff146&output=html&source=placeapi_v2', 'overall_rating': '5.0', 'image_num': '5', 'comment_num': '2', 'children': []}","{'lat': 34.691855, 'lng': 112.48738}",乐旋乒乓球俱乐部,河南省,15465f0b95ca22ac774ff146,18939004129,15465f0b95ca22ac774ff146,34.691855,112.48738,运动健身;体育场馆,,
227,227,227,中州东路310号云天宾馆,老城区,洛阳市,1,"{'tag': '运动健身;体育场馆', 'navi_location': {'lng': 112.48338105559, 'lat': 34.689478784986}, 'type': 'life', 'detail_url': 'http://api.map.baidu.com/place/detail?uid=f5f1d8f5c7e3a70f91114c72&output=html&source=placeapi_v2', 'overall_rating': '0.0', 'image_num': '2', 'comment_num': '1', 'children': []}","{'lat': 34.689634, 'lng': 112.48335}",云天宾馆-乒乓球厅,河南省,f5f1d8f5c7e3a70f91114c72,(0379)65277588,f5f1d8f5c7e3a70f91114c72,34.689634,112.48335,运动健身;体育场馆,,
228,228,228,河南省洛阳市偃师市S314,偃师市,洛阳市,1,"{'tag': '运动健身;体育场馆', 'type': 'life', 'detail_url': 'http://api.map.baidu.com/place/detail?uid=24fcb07a26e8aef68bf15d41&output=html&source=placeapi_v2', 'image_num': '1', 'children': []}","{'lat': 34.749475, 'lng': 112.801975}",佳一羽毛球俱乐部,河南省,,,24fcb07a26e8aef68bf15d41,34.749475,112.801975,运动健身;体育场馆,,
229,229,229,民主路与迎宾路交叉口东100米,偃师市,洛阳市,1,"{'tag': '运动健身;体育场馆', 'type': 'life', 'detail_url': 'http://api.map.baidu.com/place/detail?uid=dedac79370efb9ac15a19097&output=html&source=placeapi_v2', 'image_num': '1', 'children': []}","{'lat': 34.733295, 'lng': 112.801764}",迎宾乒乓球俱乐部,河南省,,,dedac79370efb9ac15a19097,34.733295,112.801764,运动健身;体育场馆,,
230,230,230,安乐街道洛阳桥南向南200米龙安宾馆,洛龙区,洛阳市,1,"{'tag': '教育培训', 'type': 'education', 'detail_url': 'http://api.map.baidu.com/place/detail?uid=870658347387db67f4b916c8&output=html&source=placeapi_v2', 'children': []}","{'lat': 34.662949, 'lng': 112.473231}",洛阳陈涛乒乓球俱乐部,河南省,,,870658347387db67f4b916c8,34.662949,112.473231,教育培训,,
231,231,231,河南省洛阳市偃师市杜甫大道启智艺术幼儿园附近,偃师市,洛阳市,1,"{'tag': '运动健身;体育场馆', 'type': 'life', 'detail_url': 'http://api.map.baidu.com/place/detail?uid=5f7c0c5853adc7de774ff12c&output=html&source=placeapi_v2', 'image_num': '1', 'children': []}","{'lat': 34.73213, 'lng': 112.752915}",经典球俱乐部,河南省,,,5f7c0c5853adc7de774ff12c,34.73213,112.752915,运动健身;体育场馆,,
232,232,232,河南省洛阳市西工区春都路126,西工区,洛阳市,1,"{'tag': '运动健身;体育场馆', 'type': 'life', 'detail_url': 'http://api.map.baidu.com/place/detail?uid=157539f6ab4352ecd13ce39b&output=html&source=placeapi_v2', 'overall_rating': '3.0', 'image_num': '1', 'children': []}","{'lat': 34.694893, 'lng': 112.452021}",乾记羽毛球馆,河南省,,13937907464,157539f6ab4352ecd13ce39b,34.694893,112.452021,运动健身;体育场馆,,
233,233,233,中州东路青年宫4楼,老城区,洛阳市,1,"{'tag': '运动健身;体育场馆', 'navi_location': {'lng': 112.48703522676, 'lat': 34.691895884976}, 'type': 'life', 'detail_url': 'http://api.map.baidu.com/place/detail?uid=15465f0b95ca22ac774ff146&output=html&source=placeapi_v2', 'overall_rating': '5.0', 'image_num': '5', 'comment_num': '2', 'children': []}","{'lat': 34.691855, 'lng': 112.48738}",乐旋乒乓球俱乐部,河南省,15465f0b95ca22ac774ff146,18939004129,15465f0b95ca22ac774ff146,34.691855,112.48738,运动健身;体育场馆,,
234,234,234,中州东路310号云天宾馆,老城区,洛阳市,1,"{'tag': '运动健身;体育场馆', 'navi_location': {'lng': 112.48338105559, 'lat': 34.689478784986}, 'type': 'life', 'detail_url': 'http://api.map.baidu.com/place/detail?uid=f5f1d8f5c7e3a70f91114c72&output=html&source=placeapi_v2', 'overall_rating': '0.0', 'image_num': '2', 'comment_num': '1', 'children': []}","{'lat': 34.689634, 'lng': 112.48335}",云天宾馆-乒乓球厅,河南省,f5f1d8f5c7e3a70f91114c72,(0379)65277588,f5f1d8f5c7e3a70f91114c72,34.689634,112.48335,运动健身;体育场馆,,
235,235,235,河南省洛阳市偃师市S314,偃师市,洛阳市,1,"{'tag': '运动健身;体育场馆', 'type': 'life', 'detail_url': 'http://api.map.baidu.com/place/detail?uid=24fcb07a26e8aef68bf15d41&output=html&source=placeapi_v2', 'image_num': '1', 'children': []}","{'lat': 34.749475, 'lng': 112.801975}",佳一羽毛球俱乐部,河南省,,,24fcb07a26e8aef68bf15d41,34.749475,112.801975,运动健身;体育场馆,,
236,236,236,民主路与迎宾路交叉口东100米,偃师市,洛阳市,1,"{'tag': '运动健身;体育场馆', 'type': 'life', 'detail_url': 'http://api.map.baidu.com/place/detail?uid=dedac79370efb9ac15a19097&output=html&source=placeapi_v2', 'image_num': '1', 'children': []}","{'lat': 34.733295, 'lng': 112.801764}",迎宾乒乓球俱乐部,河南省,,,dedac79370efb9ac15a19097,34.733295,112.801764,运动健身;体育场馆,,
237,237,237,河南省洛阳市偃师市杜甫大道启智艺术幼儿园附近,偃师市,洛阳市,1,"{'tag': '运动健身;体育场馆', 'type': 'life', 'detail_url': 'http://api.map.baidu.com/place/detail?uid=5f7c0c5853adc7de774ff12c&output=html&source=placeapi_v2', 'image_num': '1', 'children': []}","{'lat': 34.73213, 'lng': 112.752915}",经典球俱乐部,河南省,,,5f7c0c5853adc7de774ff12c,34.73213,112.752915,运动健身;体育场馆,,
238,238,238,中原路与启明路交叉口西南150米石化体育馆,吉利区,洛阳市,1,"{'tag': '运动健身;体育场馆', 'type': 'life', 'detail_url': 'http://api.map.baidu.com/place/detail?uid=fd5f9b92e08aa17b71455b1e&output=html&source=placeapi_v2', 'image_num': '3', 'children': []}","{'lat': 34.905555, 'lng': 112.611187}",石化羽毛球馆,河南省,,,fd5f9b92e08aa17b71455b1e,34.905555,112.611187,运动健身;体育场馆,,
239,239,239,河南省洛阳市偃师市S314,偃师市,洛阳市,1,"{'tag': '运动健身;体育场馆', 'type': 'life', 'detail_url': 'http://api.map.baidu.com/place/detail?uid=24fcb07a26e8aef68bf15d41&output=html&source=placeapi_v2', 'image_num': '1', 'children': []}","{'lat': 34.749475, 'lng': 112.801975}",佳一羽毛球俱乐部,河南省,,,24fcb07a26e8aef68bf15d41,34.749475,112.801975,运动健身;体育场馆,,
240,240,240,民主路与迎宾路交叉口东100米,偃师市,洛阳市,1,"{'tag': '运动健身;体育场馆', 'type': 'life', 'detail_url': 'http://api.map.baidu.com/place/detail?uid=dedac79370efb9ac15a19097&output=html&source=placeapi_v2', 'image_num': '1', 'children': []}","{'lat': 34.733295, 'lng': 112.801764}",迎宾乒乓球俱乐部,河南省,,,dedac79370efb9ac15a19097,34.733295,112.801764,运动健身;体育场馆,,
241,241,241,河南省洛阳市偃师市杜甫大道启智艺术幼儿园附近,偃师市,洛阳市,1,"{'tag': '运动健身;体育场馆', 'type': 'life', 'detail_url': 'http://api.map.baidu.com/place/detail?uid=5f7c0c5853adc7de774ff12c&output=html&source=placeapi_v2', 'image_num': '1', 'children': []}","{'lat': 34.73213, 'lng': 112.752915}",经典球俱乐部,河南省,,,5f7c0c5853adc7de774ff12c,34.73213,112.752915,运动健身;体育场馆,,
242,242,242,河南省洛阳市偃师市S314,偃师市,洛阳市,1,"{'tag': '运动健身;体育场馆', 'type': 'life', 'detail_url': 'http://api.map.baidu.com/place/detail?uid=24fcb07a26e8aef68bf15d41&output=html&source=placeapi_v2', 'image_num': '1', 'children': []}","{'lat': 34.749475, 'lng': 112.801975}",佳一羽毛球俱乐部,河南省,,,24fcb07a26e8aef68bf15d41,34.749475,112.801975,运动健身;体育场馆,,
243,243,243,民主路与迎宾路交叉口东100米,偃师市,洛阳市,1,"{'tag': '运动健身;体育场馆', 'type': 'life', 'detail_url': 'http://api.map.baidu.com/place/detail?uid=dedac79370efb9ac15a19097&output=html&source=placeapi_v2', 'image_num': '1', 'children': []}","{'lat': 34.733295, 'lng': 112.801764}",迎宾乒乓球俱乐部,河南省,,,dedac79370efb9ac15a19097,34.733295,112.801764,运动健身;体育场馆,,
244,244,244,河南省洛阳市偃师市杜甫大道启智艺术幼儿园附近,偃师市,洛阳市,1,"{'tag': '运动健身;体育场馆', 'type': 'life', 'detail_url': 'http://api.map.baidu.com/place/detail?uid=5f7c0c5853adc7de774ff12c&output=html&source=placeapi_v2', 'image_num': '1', 'children': []}","{'lat': 34.73213, 'lng': 112.752915}",经典球俱乐部,河南省,,,5f7c0c5853adc7de774ff12c,34.73213,112.752915,运动健身;体育场馆,,
245,245,245,偃师市商都夜市,偃师市,洛阳市,1,"{'tag': '运动健身;体育场馆', 'type': 'life', 'detail_url': 'http://api.map.baidu.com/place/detail?uid=0aa884ed2d48cd7e89f15d94&output=html&source=placeapi_v2', 'image_num': '1', 'children': []}","{'lat': 34.630802, 'lng': 112.734821}",偃师市佳一羽毛球俱乐部商都夜市球馆,河南省,,,0aa884ed2d48cd7e89f15d94,34.630802,112.734821,运动健身;体育场馆,,
246,246,246,河南省洛阳市偃师市S314,偃师市,洛阳市,1,"{'tag': '运动健身;体育场馆', 'type': 'life', 'detail_url': 'http://api.map.baidu.com/place/detail?uid=24fcb07a26e8aef68bf15d41&output=html&source=placeapi_v2', 'image_num': '1', 'children': []}","{'lat': 34.749475, 'lng': 112.801975}",佳一羽毛球俱乐部,河南省,,,24fcb07a26e8aef68bf15d41,34.749475,112.801975,运动健身;体育场馆,,
247,247,247,民主路与迎宾路交叉口东100米,偃师市,洛阳市,1,"{'tag': '运动健身;体育场馆', 'type': 'life', 'detail_url': 'http://api.map.baidu.com/place/detail?uid=dedac79370efb9ac15a19097&output=html&source=placeapi_v2', 'image_num': '1', 'children': []}","{'lat': 34.733295, 'lng': 112.801764}",迎宾乒乓球俱乐部,河南省,,,dedac79370efb9ac15a19097,34.733295,112.801764,运动健身;体育场馆,,
248,248,248,河南省洛阳市偃师市杜甫大道启智艺术幼儿园附近,偃师市,洛阳市,1,"{'tag': '运动健身;体育场馆', 'type': 'life', 'detail_url': 'http://api.map.baidu.com/place/detail?uid=5f7c0c5853adc7de774ff12c&output=html&source=placeapi_v2', 'image_num': '1', 'children': []}","{'lat': 34.73213, 'lng': 112.752915}",经典球俱乐部,河南省,,,5f7c0c5853adc7de774ff12c,34.73213,112.752915,运动健身;体育场馆,,
249,249,249,偃师市商都夜市,偃师市,洛阳市,1,"{'tag': '运动健身;体育场馆', 'type': 'life', 'detail_url': 'http://api.map.baidu.com/place/detail?uid=0aa884ed2d48cd7e89f15d94&output=html&source=placeapi_v2', 'image_num': '1', 'children': []}","{'lat': 34.630802, 'lng': 112.734821}",偃师市佳一羽毛球俱乐部商都夜市球馆,河南省,,,0aa884ed2d48cd7e89f15d94,34.630802,112.734821,运动健身;体育场馆,,
250,250,250,河南省洛阳市偃师市S314,偃师市,洛阳市,1,"{'tag': '运动健身;体育场馆', 'type': 'life', 'detail_url': 'http://api.map.baidu.com/place/detail?uid=24fcb07a26e8aef68bf15d41&output=html&source=placeapi_v2', 'image_num': '1', 'children': []}","{'lat': 34.749475, 'lng': 112.801975}",佳一羽毛球俱乐部,河南省,,,24fcb07a26e8aef68bf15d41,34.749475,112.801975,运动健身;体育场馆,,
251,251,251,民主路与迎宾路交叉口东100米,偃师市,洛阳市,1,"{'tag': '运动健身;体育场馆', 'type': 'life', 'detail_url': 'http://api.map.baidu.com/place/detail?uid=dedac79370efb9ac15a19097&output=html&source=placeapi_v2', 'image_num': '1', 'children': []}","{'lat': 34.733295, 'lng': 112.801764}",迎宾乒乓球俱乐部,河南省,,,dedac79370efb9ac15a19097,34.733295,112.801764,运动健身;体育场馆,,
252,252,252,河南省洛阳市偃师市杜甫大道启智艺术幼儿园附近,偃师市,洛阳市,1,"{'tag': '运动健身;体育场馆', 'type': 'life', 'detail_url': 'http://api.map.baidu.com/place/detail?uid=5f7c0c5853adc7de774ff12c&output=html&source=placeapi_v2', 'image_num': '1', 'children': []}","{'lat': 34.73213, 'lng': 112.752915}",经典球俱乐部,河南省,,,5f7c0c5853adc7de774ff12c,34.73213,112.752915,运动健身;体育场馆,,
253,253,253,河南省洛阳市偃师市S314,偃师市,洛阳市,1,"{'tag': '运动健身;体育场馆', 'type': 'life', 'detail_url': 'http://api.map.baidu.com/place/detail?uid=24fcb07a26e8aef68bf15d41&output=html&source=placeapi_v2', 'image_num': '1', 'children': []}","{'lat': 34.749475, 'lng': 112.801975}",佳一羽毛球俱乐部,河南省,,,24fcb07a26e8aef68bf15d41,34.749475,112.801975,运动健身;体育场馆,,
254,254,254,民主路与迎宾路交叉口东100米,偃师市,洛阳市,1,"{'tag': '运动健身;体育场馆', 'type': 'life', 'detail_url': 'http://api.map.baidu.com/place/detail?uid=dedac79370efb9ac15a19097&output=html&source=placeapi_v2', 'image_num': '1', 'children': []}","{'lat': 34.733295, 'lng': 112.801764}",迎宾乒乓球俱乐部,河南省,,,dedac79370efb9ac15a19097,34.733295,112.801764,运动健身;体育场馆,,
255,255,255,河南省洛阳市偃师市杜甫大道启智艺术幼儿园附近,偃师市,洛阳市,1,"{'tag': '运动健身;体育场馆', 'type': 'life', 'detail_url': 'http://api.map.baidu.com/place/detail?uid=5f7c0c5853adc7de774ff12c&output=html&source=placeapi_v2', 'image_num': '1', 'children': []}","{'lat': 34.73213, 'lng': 112.752915}",经典球俱乐部,河南省,,,5f7c0c5853adc7de774ff12c,34.73213,112.752915,运动健身;体育场馆,,
256,256,256,中原路与启明路交叉口西南150米石化体育馆,吉利区,洛阳市,1,"{'tag': '运动健身;体育场馆', 'type': 'life', 'detail_url': 'http://api.map.baidu.com/place/detail?uid=fd5f9b92e08aa17b71455b1e&output=html&source=placeapi_v2', 'image_num': '3', 'children': []}","{'lat': 34.905555, 'lng': 112.611187}",石化羽毛球馆,河南省,,,fd5f9b92e08aa17b71455b1e,34.905555,112.611187,运动健身;体育场馆,,
257,257,257,河南省洛阳市偃师市S314,偃师市,洛阳市,1,"{'tag': '运动健身;体育场馆', 'type': 'life', 'detail_url': 'http://api.map.baidu.com/place/detail?uid=24fcb07a26e8aef68bf15d41&output=html&source=placeapi_v2', 'image_num': '1', 'children': []}","{'lat': 34.749475, 'lng': 112.801975}",佳一羽毛球俱乐部,河南省,,,24fcb07a26e8aef68bf15d41,34.749475,112.801975,运动健身;体育场馆,,
258,258,258,民主路与迎宾路交叉口东100米,偃师市,洛阳市,1,"{'tag': '运动健身;体育场馆', 'type': 'life', 'detail_url': 'http://api.map.baidu.com/place/detail?uid=dedac79370efb9ac15a19097&output=html&source=placeapi_v2', 'image_num': '1', 'children': []}","{'lat': 34.733295, 'lng': 112.801764}",迎宾乒乓球俱乐部,河南省,,,dedac79370efb9ac15a19097,34.733295,112.801764,运动健身;体育场馆,,
259,259,259,河南省洛阳市偃师市杜甫大道启智艺术幼儿园附近,偃师市,洛阳市,1,"{'tag': '运动健身;体育场馆', 'type': 'life', 'detail_url': 'http://api.map.baidu.com/place/detail?uid=5f7c0c5853adc7de774ff12c&output=html&source=placeapi_v2', 'image_num': '1', 'children': []}","{'lat': 34.73213, 'lng': 112.752915}",经典球俱乐部,河南省,,,5f7c0c5853adc7de774ff12c,34.73213,112.752915,运动健身;体育场馆,,
260,260,260,河南省洛阳市偃师市S314,偃师市,洛阳市,1,"{'tag': '运动健身;体育场馆', 'type': 'life', 'detail_url': 'http://api.map.baidu.com/place/detail?uid=24fcb07a26e8aef68bf15d41&output=html&source=placeapi_v2', 'image_num': '1', 'children': []}","{'lat': 34.749475, 'lng': 112.801975}",佳一羽毛球俱乐部,河南省,,,24fcb07a26e8aef68bf15d41,34.749475,112.801975,运动健身;体育场馆,,
261,261,261,民主路与迎宾路交叉口东100米,偃师市,洛阳市,1,"{'tag': '运动健身;体育场馆', 'type': 'life', 'detail_url': 'http://api.map.baidu.com/place/detail?uid=dedac79370efb9ac15a19097&output=html&source=placeapi_v2', 'image_num': '1', 'children': []}","{'lat': 34.733295, 'lng': 112.801764}",迎宾乒乓球俱乐部,河南省,,,dedac79370efb9ac15a19097,34.733295,112.801764,运动健身;体育场馆,,
262,262,262,河南省洛阳市偃师市杜甫大道启智艺术幼儿园附近,偃师市,洛阳市,1,"{'tag': '运动健身;体育场馆', 'type': 'life', 'detail_url': 'http://api.map.baidu.com/place/detail?uid=5f7c0c5853adc7de774ff12c&output=html&source=placeapi_v2', 'image_num': '1', 'children': []}","{'lat': 34.73213, 'lng': 112.752915}",经典球俱乐部,河南省,,,5f7c0c5853adc7de774ff12c,34.73213,112.752915,运动健身;体育场馆,,
263,263,263,偃师市商都夜市,偃师市,洛阳市,1,"{'tag': '运动健身;体育场馆', 'type': 'life', 'detail_url': 'http://api.map.baidu.com/place/detail?uid=0aa884ed2d48cd7e89f15d94&output=html&source=placeapi_v2', 'image_num': '1', 'children': []}","{'lat': 34.630802, 'lng': 112.734821}",偃师市佳一羽毛球俱乐部商都夜市球馆,河南省,,,0aa884ed2d48cd7e89f15d94,34.630802,112.734821,运动健身;体育场馆,,
264,264,264,河南省洛阳市偃师市S314,偃师市,洛阳市,1,"{'tag': '运动健身;体育场馆', 'type': 'life', 'detail_url': 'http://api.map.baidu.com/place/detail?uid=24fcb07a26e8aef68bf15d41&output=html&source=placeapi_v2', 'image_num': '1', 'children': []}","{'lat': 34.749475, 'lng': 112.801975}",佳一羽毛球俱乐部,河南省,,,24fcb07a26e8aef68bf15d41,34.749475,112.801975,运动健身;体育场馆,,
265,265,265,民主路与迎宾路交叉口东100米,偃师市,洛阳市,1,"{'tag': '运动健身;体育场馆', 'type': 'life', 'detail_url': 'http://api.map.baidu.com/place/detail?uid=dedac79370efb9ac15a19097&output=html&source=placeapi_v2', 'image_num': '1', 'children': []}","{'lat': 34.733295, 'lng': 112.801764}",迎宾乒乓球俱乐部,河南省,,,dedac79370efb9ac15a19097,34.733295,112.801764,运动健身;体育场馆,,
266,266,266,河南省洛阳市偃师市杜甫大道启智艺术幼儿园附近,偃师市,洛阳市,1,"{'tag': '运动健身;体育场馆', 'type': 'life', 'detail_url': 'http://api.map.baidu.com/place/detail?uid=5f7c0c5853adc7de774ff12c&output=html&source=placeapi_v2', 'image_num': '1', 'children': []}","{'lat': 34.73213, 'lng': 112.752915}",经典球俱乐部,河南省,,,5f7c0c5853adc7de774ff12c,34.73213,112.752915,运动健身;体育场馆,,
267,267,267,偃师市商都夜市,偃师市,洛阳市,1,"{'tag': '运动健身;体育场馆', 'type': 'life', 'detail_url': 'http://api.map.baidu.com/place/detail?uid=0aa884ed2d48cd7e89f15d94&output=html&source=placeapi_v2', 'image_num': '1', 'children': []}","{'lat': 34.630802, 'lng': 112.734821}",偃师市佳一羽毛球俱乐部商都夜市球馆,河南省,,,0aa884ed2d48cd7e89f15d94,34.630802,112.734821,运动健身;体育场馆,,
268,268,268,河南省洛阳市偃师市S314,偃师市,洛阳市,1,"{'tag': '运动健身;体育场馆', 'type': 'life', 'detail_url': 'http://api.map.baidu.com/place/detail?uid=24fcb07a26e8aef68bf15d41&output=html&source=placeapi_v2', 'image_num': '1', 'children': []}","{'lat': 34.749475, 'lng': 112.801975}",佳一羽毛球俱乐部,河南省,,,24fcb07a26e8aef68bf15d41,34.749475,112.801975,运动健身;体育场馆,,
269,269,269,民主路与迎宾路交叉口东100米,偃师市,洛阳市,1,"{'tag': '运动健身;体育场馆', 'type': 'life', 'detail_url': 'http://api.map.baidu.com/place/detail?uid=dedac79370efb9ac15a19097&output=html&source=placeapi_v2', 'image_num': '1', 'children': []}","{'lat': 34.733295, 'lng': 112.801764}",迎宾乒乓球俱乐部,河南省,,,dedac79370efb9ac15a19097,34.733295,112.801764,运动健身;体育场馆,,
270,270,270,河南省洛阳市偃师市杜甫大道启智艺术幼儿园附近,偃师市,洛阳市,1,"{'tag': '运动健身;体育场馆', 'type': 'life', 'detail_url': 'http://api.map.baidu.com/place/detail?uid=5f7c0c5853adc7de774ff12c&output=html&source=placeapi_v2', 'image_num': '1', 'children': []}","{'lat': 34.73213, 'lng': 112.752915}",经典球俱乐部,河南省,,,5f7c0c5853adc7de774ff12c,34.73213,112.752915,运动健身;体育场馆,,
271,271,271,河南省洛阳市偃师市S314,偃师市,洛阳市,1,"{'tag': '运动健身;体育场馆', 'type': 'life', 'detail_url': 'http://api.map.baidu.com/place/detail?uid=24fcb07a26e8aef68bf15d41&output=html&source=placeapi_v2', 'image_num': '1', 'children': []}","{'lat': 34.749475, 'lng': 112.801975}",佳一羽毛球俱乐部,河南省,,,24fcb07a26e8aef68bf15d41,34.749475,112.801975,运动健身;体育场馆,,
272,272,272,民主路与迎宾路交叉口东100米,偃师市,洛阳市,1,"{'tag': '运动健身;体育场馆', 'type': 'life', 'detail_url': 'http://api.map.baidu.com/place/detail?uid=dedac79370efb9ac15a19097&output=html&source=placeapi_v2', 'image_num': '1', 'children': []}","{'lat': 34.733295, 'lng': 112.801764}",迎宾乒乓球俱乐部,河南省,,,dedac79370efb9ac15a19097,34.733295,112.801764,运动健身;体育场馆,,
273,273,273,河南省洛阳市偃师市杜甫大道启智艺术幼儿园附近,偃师市,洛阳市,1,"{'tag': '运动健身;体育场馆', 'type': 'life', 'detail_url': 'http://api.map.baidu.com/place/detail?uid=5f7c0c5853adc7de774ff12c&output=html&source=placeapi_v2', 'image_num': '1', 'children': []}","{'lat': 34.73213, 'lng': 112.752915}",经典球俱乐部,河南省,,,5f7c0c5853adc7de774ff12c,34.73213,112.752915,运动健身;体育场馆,,
274,274,274,中原路与启明路交叉口西南150米石化体育馆,吉利区,洛阳市,1,"{'tag': '运动健身;体育场馆', 'type': 'life', 'detail_url': 'http://api.map.baidu.com/place/detail?uid=fd5f9b92e08aa17b71455b1e&output=html&source=placeapi_v2', 'image_num': '3', 'children': []}","{'lat': 34.905555, 'lng': 112.611187}",石化羽毛球馆,河南省,,,fd5f9b92e08aa17b71455b1e,34.905555,112.611187,运动健身;体育场馆,,
275,275,275,河南省洛阳市偃师市S314,偃师市,洛阳市,1,"{'tag': '运动健身;体育场馆', 'type': 'life', 'detail_url': 'http://api.map.baidu.com/place/detail?uid=24fcb07a26e8aef68bf15d41&output=html&source=placeapi_v2', 'image_num': '1', 'children': []}","{'lat': 34.749475, 'lng': 112.801975}",佳一羽毛球俱乐部,河南省,,,24fcb07a26e8aef68bf15d41,34.749475,112.801975,运动健身;体育场馆,,
276,276,276,民主路与迎宾路交叉口东100米,偃师市,洛阳市,1,"{'tag': '运动健身;体育场馆', 'type': 'life', 'detail_url': 'http://api.map.baidu.com/place/detail?uid=dedac79370efb9ac15a19097&output=html&source=placeapi_v2', 'image_num': '1', 'children': []}","{'lat': 34.733295, 'lng': 112.801764}",迎宾乒乓球俱乐部,河南省,,,dedac79370efb9ac15a19097,34.733295,112.801764,运动健身;体育场馆,,
277,277,277,河南省洛阳市偃师市杜甫大道启智艺术幼儿园附近,偃师市,洛阳市,1,"{'tag': '运动健身;体育场馆', 'type': 'life', 'detail_url': 'http://api.map.baidu.com/place/detail?uid=5f7c0c5853adc7de774ff12c&output=html&source=placeapi_v2', 'image_num': '1', 'children': []}","{'lat': 34.73213, 'lng': 112.752915}",经典球俱乐部,河南省,,,5f7c0c5853adc7de774ff12c,34.73213,112.752915,运动健身;体育场馆,,